{"type": "FeatureCollection", "features": [{"type": "Feature", "geometry": {"type": "Polygon", "coordinates": [[[16.883011080964373, 46.04338729583341], [16.88303831877231, 46.043371332811745], [16.882998449800272, 46.043345235765955], [16.882960610858866, 46.04332046894505], [16.88291931043668, 46.04331046884431], [16.88290155838647, 46.04328181523141], [16.882885294660397, 46.04324397369682], [16.88287360195348, 46.0432217933359], [16.88285939514095, 46.04319198064802], [16.882864107641726, 46.04316845957675], [16.882871634124516, 46.043130890150096], [16.88287743065622, 46.043101944402906], [16.882885216511358, 46.04306320711954], [16.882887427692648, 46.04305223795665], [16.88289552425541, 46.04301190795893], [16.882903247181677, 46.04297360366828], [16.882906405022833, 46.04295789860465], [16.882913660433854, 46.042921871368016], [16.882919087404716, 46.04289498460305], [16.882927652602582, 46.04285254849709], [16.882931831439144, 46.04283183465607], [16.882948919383804, 46.042747183923176], [16.882956393920217, 46.04271015361746], [16.8829681784435, 46.04265176120255], [16.882970186104085, 46.042641822042796], [16.882982547788146, 46.04258057275844], [16.882986351858495, 46.0425617244696], [16.88301415494193, 46.04252049614778], [16.883017849718748, 46.042515375837716], [16.883043856980652, 46.04247155592388], [16.883058078390224, 46.04245357697662], [16.88310390109503, 46.04239563730889], [16.883115208504673, 46.042381340935506], [16.8831487941586, 46.04233705561187], [16.883151418778994, 46.04233357194633], [16.883183455075894, 46.04229113631081], [16.883193180814395, 46.042278124688615], [16.883211647823003, 46.042253421988754], [16.883237347967636, 46.042219041524554], [16.88325088357909, 46.042200934387004], [16.88328151374122, 46.04215995924717], [16.883294548775048, 46.04214252320322], [16.883318315739547, 46.0421107324097], [16.883325682011197, 46.04210087784351], [16.883339668197273, 46.04208216814526], [16.8833731308301, 46.04204405910801], [16.883398317670494, 46.042020488226825], [16.883428831132374, 46.041992930636034], [16.88346803912473, 46.041961698045036], [16.88348975674312, 46.041945407931614], [16.88351011700813, 46.041930137296134], [16.883551953215935, 46.04189876089332], [16.883596576024154, 46.04186529038219], [16.88362319828713, 46.04185835476675], [16.88368815207444, 46.041839563919574], [16.883714664584446, 46.04183189534806], [16.883725524659457, 46.04182842091037], [16.883795567051404, 46.04183920327565], [16.883854866346628, 46.041848331932414], [16.8838932478162, 46.04186551977496], [16.88392650394823, 46.041878999821016], [16.883984539520693, 46.04191607915416], [16.883997179045505, 46.04192850194372], [16.884026857752065, 46.04195767137136], [16.884045594614854, 46.04197608675435], [16.88408841120162, 46.04201817124121], [16.88409921781372, 46.04202879436357], [16.884114629605808, 46.04204394038983], [16.88415284368628, 46.04208150013863], [16.88417964494542, 46.042107840459195], [16.884206470946765, 46.04213420498367], [16.884244720285828, 46.04217180057298], [16.884260095737837, 46.042186911610884], [16.884270877692867, 46.04219750960635], [16.884302618227387, 46.0422374052474], [16.884307883200584, 46.042243723643324], [16.884338769129073, 46.04228725717164], [16.88434730932942, 46.042306414002184], [16.884375293776692, 46.04236919501196], [16.88437881644932, 46.04237709833987], [16.884408677788635, 46.04244408749699], [16.884437997145046, 46.04250986019568], [16.88445891018983, 46.042556780633134], [16.884470045275176, 46.042581762758395], [16.884495622938278, 46.04263914788297], [16.88449895402604, 46.042646621766835], [16.88450036461961, 46.042650857582665], [16.884506566468843, 46.04266724381272], [16.884527394985767, 46.042722263245786], [16.884533465524814, 46.042736481498295], [16.884540455823238, 46.04275961146176], [16.884551393540693, 46.042795801632344], [16.884560628063632, 46.042826365944784], [16.884573927646006, 46.042870369765204], [16.88457464045137, 46.042872731031935], [16.884587794567548, 46.04291625037011], [16.88458690067271, 46.04295166066779], [16.884582580534182, 46.0429677502867], [16.88458197937641, 46.04300624577005], [16.88455815454372, 46.0430404474687], [16.884528333467827, 46.04308325482957], [16.884519151726394, 46.04309643298825], [16.884473885272495, 46.043161415552994], [16.88445632645673, 46.04318662016244], [16.884432417815844, 46.04322235980257], [16.884408142728745, 46.04325817624963], [16.88439557987825, 46.04327680030959], [16.88439310541611, 46.04328479038735], [16.884370261640754, 46.04335857810935], [16.884367693650418, 46.04336686991997], [16.884347416513123, 46.04343236583036], [16.884339809916938, 46.043456939513696], [16.884328285975105, 46.04349514960854], [16.88432495951278, 46.04350642126846], [16.8843125747018, 46.043547006918566], [16.884327014607916, 46.04358645775025], [16.884384070505195, 46.04363475025181], [16.884388337749034, 46.0436367279653], [16.88446327908002, 46.04367147199909], [16.88451369543328, 46.04369484547155], [16.884540770229112, 46.043707397784935], [16.884581011080478, 46.04372605563863], [16.884618260192674, 46.04374332442177], [16.884643320666918, 46.04375494414169], [16.88467334956228, 46.04374669486936], [16.88474980303765, 46.04374124682506], [16.884772405545167, 46.04373716771193], [16.884789950104548, 46.04372535240625], [16.884846675977293, 46.043687146631946], [16.88490101226464, 46.043650550446074], [16.884924256790004, 46.04365110829413], [16.885003044484314, 46.043653598883644], [16.88503024590118, 46.04365423425683], [16.885060224663626, 46.043655337138524], [16.885125733080024, 46.04365774461505], [16.885159486963236, 46.04365898410993], [16.885197370112042, 46.04366037703345], [16.88524793181104, 46.04366223557355], [16.885288728040237, 46.04366373291706], [16.885337697744756, 46.04366761314224], [16.885367218236212, 46.04366877417319], [16.885418003193948, 46.043673378847146], [16.885461853466616, 46.04369264685204], [16.885501999913874, 46.04372295296975], [16.88552022296686, 46.04374201766448], [16.885547890095964, 46.04377095953626], [16.885571912883165, 46.04379608702376], [16.885587735903858, 46.043812639581226], [16.885623601602205, 46.04385015546345], [16.885664639787333, 46.043893087520495], [16.88567347087977, 46.043902326130464], [16.885678045871664, 46.04390711270206], [16.885726976784333, 46.04395829587791], [16.88575920871782, 46.04399201260438], [16.885778665812747, 46.04401236514472], [16.885808202275527, 46.04404326391491], [16.88583035365642, 46.04406643529142], [16.885844942957675, 46.04408169902477], [16.8858161333889, 46.04408710665122], [16.885791499452278, 46.04409375623842], [16.88571949187351, 46.044110000569496], [16.885679549722266, 46.04412322144081], [16.88563176195164, 46.044139039378635], [16.88555932327651, 46.04417263869841], [16.885554236748977, 46.0441751166956], [16.885550716694247, 46.04417728888912], [16.885496669194186, 46.04421064707669], [16.88548562961965, 46.044217345220176], [16.88547337040599, 46.04422703017418], [16.88542713918414, 46.04426306034155], [16.885428404756958, 46.0442674217002], [16.885448074289346, 46.04433523042156], [16.88546985546874, 46.04441032905529], [16.885479286471245, 46.0444428360999], [16.88550300456546, 46.04447743458055], [16.885553151374484, 46.044527272185405], [16.885556402706968, 46.04453030239989], [16.88555939399375, 46.04453254170441], [16.885621899151893, 46.044574663552034], [16.885682979095144, 46.04461602538014], [16.885687390564673, 46.04461902918208], [16.885691817802545, 46.044622070720486], [16.885752304740496, 46.04466379891435], [16.885812812555457, 46.044705543201104], [16.88582160491441, 46.04471160848245], [16.88588375097608, 46.044752203608645], [16.885942587871423, 46.04478665103117], [16.88597393679146, 46.044779204044325], [16.886019786383688, 46.04476480243219], [16.88607158460238, 46.0447559358144], [16.886130641885696, 46.04475170989504], [16.886154270702214, 46.0447428187351], [16.88620065161066, 46.04473532629683], [16.886260664210386, 46.04475842273432], [16.88632331786881, 46.04479504257429], [16.886330305756513, 46.044798959894855], [16.886330894541878, 46.04479945637066], [16.886332968487316, 46.04480169695605], [16.886383047837473, 46.04485319987432], [16.886411150220617, 46.04488956846261], [16.886428315737714, 46.04491178393773], [16.886460676928813, 46.04496537837789], [16.88647172356787, 46.044986927120405], [16.88653411827433, 46.04510863513411], [16.886542731100178, 46.04512543507962], [16.886559933215146, 46.045158992759525], [16.88656903706929, 46.045174497190196], [16.886591595863457, 46.045210210562814], [16.8866085848659, 46.0452371044484], [16.886616500403147, 46.04524877722639], [16.886668250557552, 46.04528556692038], [16.886721593396388, 46.045322830772825], [16.886732943861062, 46.045330492496184], [16.886745587579735, 46.04533831629757], [16.88680242820588, 46.04537205022267], [16.886851353016308, 46.045401291427865], [16.886871899796724, 46.04541361694739], [16.886895516607172, 46.04542778467264], [16.886941439639635, 46.04545513571138], [16.88698110555861, 46.04547868574537], [16.88701115831426, 46.0454965287609], [16.887046167106476, 46.045517250406576], [16.88708121654672, 46.04553768308153], [16.88711084869672, 46.045554681722656], [16.887153321898175, 46.04557739890987], [16.887210544022185, 46.045606669438925], [16.887227959104813, 46.04561533359154], [16.887240530316006, 46.04562182234274], [16.88729815393763, 46.04565639104154], [16.887364386996424, 46.04569612393527], [16.88736765197231, 46.04569793937825], [16.887370283923538, 46.045699217111846], [16.887385346814124, 46.045706505384764], [16.88744325898714, 46.04573519221428], [16.887499919760625, 46.045759716478194], [16.88752404020075, 46.045768807730774], [16.88757248702137, 46.04578539425153], [16.88762944442272, 46.045804280462], [16.88769012122692, 46.045832858816425], [16.887716425424976, 46.045845273524634], [16.88775908513733, 46.045865401249564], [16.887765160315436, 46.04587051105811], [16.887766161400286, 46.04587471313009], [16.88776267690285, 46.045877168694204], [16.887759172036827, 46.04587782121254], [16.88771837237113, 46.04590341017405], [16.887690285831663, 46.045916788572846], [16.88769278221716, 46.04592140396074], [16.887686263451513, 46.045943049120766], [16.888062693985795, 46.046063650990924], [16.889382160687532, 46.046348885453526], [16.889420336490367, 46.04635748657466], [16.889584087702676, 46.04606819270982], [16.890128220791738, 46.04546448863018], [16.890481300389542, 46.04510787849962], [16.89082373003003, 46.04492738632353], [16.89100599785618, 46.04479224909709], [16.89130684190308, 46.04492055882597], [16.89164256854408, 46.04405809747108], [16.891567741203453, 46.04397838424211], [16.891357172920795, 46.04387455354083], [16.891095825865886, 46.043807246449006], [16.890507628817456, 46.04380151971782], [16.890210921561362, 46.04383186520154], [16.88980550001827, 46.043800047544], [16.88968114931816, 46.043737488502586], [16.889603428535885, 46.04361772571228], [16.889594211483605, 46.043409373117996], [16.88952778248018, 46.04325996973096], [16.889073599281836, 46.04312826252529], [16.889157715094726, 46.04303656070762], [16.889356628055456, 46.04292740299885], [16.889357394978614, 46.042900101717855], [16.889358772064067, 46.042851141174395], [16.889359924524175, 46.042810117264516], [16.889361367145195, 46.042758899003246], [16.88936349584497, 46.04268321847251], [16.889363960926655, 46.04266665683496], [16.8893649874696, 46.04263014834032], [16.889365753917833, 46.04259523960218], [16.88936607641234, 46.042574750104926], [16.88936682705275, 46.042540166233074], [16.889366381258693, 46.04250613528953], [16.889365705351125, 46.042484592876825], [16.88936526086203, 46.042450195726815], [16.889364169100688, 46.04241506927804], [16.889363565175543, 46.04239568064145], [16.88936246209076, 46.0423602294181], [16.889358042490308, 46.04232130832727], [16.88935604564164, 46.042310550419685], [16.889351913809286, 46.0422702895074], [16.88933723899774, 46.04223335672535], [16.889336847390055, 46.04221715340947], [16.889327109466322, 46.042180398156326], [16.889316932007134, 46.04215721905536], [16.889296747348844, 46.042099962395824], [16.88929296911737, 46.04209053859778], [16.889290559176384, 46.04208534800163], [16.889282977845546, 46.04206902971076], [16.889255819113735, 46.0420193592665], [16.88925146054063, 46.042000704121776], [16.889248221321875, 46.04197696062942], [16.889240143381784, 46.04193996577678], [16.889236604953393, 46.041910778864086], [16.889231165640954, 46.041875661817976], [16.889228400607458, 46.04185780472944], [16.88922267578427, 46.04182085044822], [16.889215639436387, 46.041775415909775], [16.8892087492453, 46.041730922020285], [16.88920314221698, 46.04169473123114], [16.889200112003486, 46.041675170901684], [16.889194817584446, 46.04164099360669], [16.88919496089777, 46.041610065717876], [16.88919551256469, 46.04158246014653], [16.889195650953063, 46.041551014913026], [16.88918985625532, 46.04152323840356], [16.889149657186053, 46.04148273588495], [16.88909997328536, 46.041516575803264], [16.889066236125455, 46.04151975432983], [16.88902080186927, 46.04153227346446], [16.888987647487262, 46.04152865230827], [16.88893839767304, 46.041519236585096], [16.888891480477596, 46.041515414800756], [16.888865136370125, 46.0415337038512], [16.88879748089008, 46.041552370069155], [16.8887852903505, 46.0415681798061], [16.88876270127358, 46.04157584790614], [16.888723949064243, 46.04161541612943], [16.888666609407288, 46.04161994796776], [16.888633875963215, 46.04162974517635], [16.888623819320102, 46.041635904027835], [16.888611580386847, 46.04164297815482], [16.888586074789405, 46.041676582678704], [16.888581861599004, 46.04169650596018], [16.8885522583946, 46.041700362194405], [16.888505296592314, 46.04171876623869], [16.888495441811997, 46.04172644768382], [16.888487044344522, 46.041733377375095], [16.888473640514867, 46.041755647869465], [16.888466370940623, 46.0417959385713], [16.8884146662234, 46.04182359921824], [16.888402161158655, 46.041841196902816], [16.888377013303383, 46.04185010179194], [16.888350590344537, 46.0418951714029], [16.88832476693018, 46.041913880545], [16.888299493314495, 46.0419494726814], [16.888248631418957, 46.04196744808788], [16.888228408650544, 46.04198999004903], [16.888211428966667, 46.04200424141351], [16.888181166112858, 46.04204695046363], [16.88812013532217, 46.04206856118245], [16.888091527038345, 46.04207467141251], [16.88801539009711, 46.04207789641683], [16.887991021351827, 46.04208147380496], [16.887971095825552, 46.04208115814651], [16.887876977904057, 46.04208481119485], [16.887845684269777, 46.04208421018042], [16.88774256427504, 46.04208891579086], [16.88773266297389, 46.042088678553164], [16.887716588110095, 46.042084721961096], [16.887621254690725, 46.04208380455005], [16.887603323243003, 46.04206932706432], [16.887563671930486, 46.04203387967676], [16.887546979788187, 46.042006496342744], [16.88752040449215, 46.04197388922698], [16.88751161321196, 46.04194336323533], [16.887491515347072, 46.041903788015134], [16.887476854533176, 46.04182985327565], [16.887475720647878, 46.04182678624388], [16.88747582545388, 46.04182440512754], [16.887472268089716, 46.041804573913126], [16.887450910593373, 46.04175150927654], [16.88744646729818, 46.04173690956116], [16.887443290422365, 46.041717166131825], [16.887454204381644, 46.04165877799372], [16.887446166891863, 46.04162960987499], [16.88742843389919, 46.04156105529915], [16.887251506187113, 46.04131628173982], [16.88721039037817, 46.04130782204782], [16.8872013227568, 46.04129410895447], [16.887197131809163, 46.041287875228576], [16.88719138931513, 46.041274822989436], [16.887187085021754, 46.04121370527186], [16.887172237092297, 46.04119798370146], [16.887137162527935, 46.04115839526364], [16.887079894134377, 46.04112257369029], [16.887072118934586, 46.0411137194046], [16.887068140847056, 46.04110836041804], [16.88706179403404, 46.04109590585878], [16.88704129967351, 46.04104497514294], [16.887024379512823, 46.0410185327479], [16.8870045109643, 46.04098042956422], [16.886953424976692, 46.04093162866829], [16.886950885836505, 46.040928805724256], [16.88695038460722, 46.04092807591743], [16.88694932848139, 46.04092725711359], [16.886898858048188, 46.04087389413192], [16.886837499796346, 46.040839213677586], [16.88683583610339, 46.040827795972376], [16.886826630323096, 46.04075464165851], [16.886825866774913, 46.04074927718218], [16.886825450989516, 46.04074468352178], [16.88681838309743, 46.0406773937958], [16.88681675274792, 46.040660384876624], [16.88681665108717, 46.040659332503004], [16.886816536825386, 46.04065814070944], [16.88680862666994, 46.040575683900556], [16.886800500617646, 46.040490982922556], [16.88679814021231, 46.040466370812716], [16.886792374591014, 46.04040628194264], [16.8867889413154, 46.0403704867626], [16.88678424859005, 46.04032158096082], [16.886782136157542, 46.04029954581959], [16.886779140051146, 46.04027418546102], [16.886775547916574, 46.04023728501382], [16.88677217773764, 46.04020960364327], [16.886766411281574, 46.040175866007274], [16.886762729190792, 46.040155883128], [16.88675666389013, 46.04011968026363], [16.886741156252274, 46.040080638219194], [16.886727591757023, 46.04005955328185], [16.886712193269798, 46.04002985485885], [16.8867050859534, 46.04001558803712], [16.886684464818618, 46.04000120048079], [16.886657754401405, 46.03995845692775], [16.886644057899392, 46.039940109492946], [16.88662593112078, 46.039899898507585], [16.88662565833877, 46.039890612119834], [16.886581126770817, 46.03985034648269], [16.886575936885155, 46.039835161711395], [16.886553916003972, 46.03980771616674], [16.886542831738197, 46.03976802750223], [16.886536918921156, 46.039760520116786], [16.886527802278177, 46.039742680838145], [16.886525696141042, 46.03968966157305], [16.88645845546985, 46.039220930121175], [16.886462007973154, 46.03919195846842], [16.88646366690505, 46.039161200898384], [16.88646781493655, 46.039130922581], [16.88651116582546, 46.03910441934981], [16.886548568806383, 46.03904091563641], [16.88654878674888, 46.039040672864154], [16.886549418231137, 46.03904007508803], [16.886604473097428, 46.03898969042397], [16.88663838458428, 46.03895039390833], [16.886655417192173, 46.03893528512048], [16.886676769315784, 46.03889801774838], [16.886692106778234, 46.03887104776873], [16.8866924589928, 46.03886023507317], [16.886705473382506, 46.038839918571064], [16.886723817641766, 46.038803378474306], [16.886754414036993, 46.03877004954432], [16.88677597527226, 46.038749809384036], [16.88680483236396, 46.03873551442947], [16.88683946491773, 46.038704057711534], [16.886893242833573, 46.038679603783166], [16.886910707382874, 46.03866365221968], [16.886933446878796, 46.03865212400619], [16.886971380987124, 46.038615957529004], [16.887033934142835, 46.03858915154482], [16.887046375074046, 46.038578138653605], [16.88706206963846, 46.03856996967784], [16.88710366013062, 46.03852810699583], [16.887177043485398, 46.03849869094056], [16.887182196840186, 46.03849273237423], [16.887190691809348, 46.03848778551344], [16.88723594665032, 46.038440262581396], [16.88729105172671, 46.03842812076973], [16.887319396624044, 46.03841748404076], [16.887327305618644, 46.038413732235995], [16.887339737984217, 46.03840816378355], [16.887335426931937, 46.03839691520968], [16.887319250413476, 46.038396557940175], [16.887305125625495, 46.03839843411576], [16.887219773285313, 46.03838783083221], [16.88719000848387, 46.03838995342797], [16.887148377055002, 46.03837986779243], [16.8871086207217, 46.03837558193607], [16.88706056084648, 46.03835388325683], [16.887030320291004, 46.03834023014702], [16.887014221020905, 46.038319290584134], [16.886958513751523, 46.03830031163526], [16.886930925619435, 46.03829091347707], [16.8868691519531, 46.03827682901649], [16.88686429081102, 46.038276158054764], [16.886801478487133, 46.03825485830616], [16.886776743016245, 46.03824730845899], [16.8867527160359, 46.03823019986787], [16.886699169367883, 46.03821144561902], [16.886671907912024, 46.03820108175119], [16.88663709010881, 46.03820631736894], [16.88664480294735, 46.03823056497791], [16.88664571085083, 46.038249039358995], [16.886635592484453, 46.03829482453734], [16.886636521376687, 46.038320568900524], [16.88663690429639, 46.03834564748931], [16.886637165111637, 46.03838545014821], [16.886637545536274, 46.038410541341754], [16.886637607688833, 46.03843556792945], [16.886637867954, 46.03847547676114], [16.88663793019482, 46.03850051594489], [16.88661632380525, 46.03854095042446], [16.886618088982075, 46.0385513753599], [16.886593855678207, 46.03855675061281], [16.886545355223976, 46.03858006545273], [16.88654012304399, 46.038587144456784], [16.88653708422869, 46.03859083294885], [16.88653217240112, 46.038600127875355], [16.88651777085879, 46.038661269316584], [16.886497206891413, 46.03868094370672], [16.886487300220523, 46.03872209799276], [16.88648843424656, 46.038730576186126], [16.886469482669753, 46.038771013355785], [16.886457679929258, 46.0387989071036], [16.88641785410258, 46.0388232380768], [16.886404909183, 46.0388520525349], [16.88639757535863, 46.038861232376455], [16.886377549245495, 46.03888969197215], [16.886364651780283, 46.0389138275183], [16.886321810079814, 46.038951464390685], [16.886314013796735, 46.03896844400078], [16.886289710301874, 46.03897434488524], [16.886238598060427, 46.039005972295826], [16.8861708547869, 46.03904195042608], [16.886167511747825, 46.03904648570934], [16.88616104882844, 46.0390512402776], [16.88611169618357, 46.039097531355644], [16.88605455929454, 46.03913231919435], [16.886048702701085, 46.039143625552256], [16.886032889071995, 46.03920023151247], [16.88602771276789, 46.03921869135418], [16.8860269038971, 46.039222388496256], [16.885958361738332, 46.03926040175275], [16.885904204588567, 46.03927394784193], [16.88585032679979, 46.03926044081088], [16.88580834757025, 46.03924647880165], [16.88577474572938, 46.03923644204194], [16.88572514314967, 46.03927863449345], [16.88569831364126, 46.03927692281869], [16.885645909869197, 46.03928846090489], [16.885607414092867, 46.03928697842113], [16.885555849214697, 46.03928668990392], [16.885516687984943, 46.03928500898818], [16.885457230698847, 46.03926562447135], [16.885421878695936, 46.03922443036029], [16.885398387710687, 46.03921658899628], [16.885386987980386, 46.03921278366538], [16.88536408380523, 46.03920869410985], [16.885284500491906, 46.03920626043628], [16.885257684270144, 46.039197530493716], [16.885194999076777, 46.03917878385263], [16.885151604828597, 46.03913536556434], [16.885140688482203, 46.03912656131878], [16.885127764794664, 46.03909363770006], [16.885089039285614, 46.03910853412773], [16.88505271806912, 46.039135698753135], [16.88502823629582, 46.039156140074034], [16.884999110811066, 46.03917188319502], [16.884958933925873, 46.03919788479313], [16.88491528042043, 46.03922613758541], [16.884893118396164, 46.03924203358044], [16.88487049115309, 46.039255124789634], [16.884775527150133, 46.039316584046524], [16.884758206478047, 46.03932806749445], [16.884741871102445, 46.03933836533979], [16.884691022343006, 46.03937127332544], [16.884635772131677, 46.03940703034111], [16.884613250659143, 46.03942160484544], [16.884549363087, 46.03945265455368], [16.884543861886005, 46.03945582941681], [16.88448452308864, 46.039489455089665], [16.884472118920637, 46.0394889200711], [16.88437346336103, 46.03948523627044], [16.88435528995691, 46.03948443811679], [16.8843329054516, 46.03948244574468], [16.88425796605793, 46.03947603860077], [16.884226013447897, 46.03947315972157], [16.884179230178656, 46.03946599474699], [16.884148222378684, 46.03946279505534], [16.884096677227717, 46.03945325629221], [16.88406430498038, 46.03943139116642], [16.884048794670818, 46.039409004198106], [16.884036080482126, 46.03936726031712], [16.88401178647786, 46.0392874964398], [16.883967028646854, 46.039140545226005], [16.883965272989023, 46.039134782769565], [16.883943747510997, 46.039064104337186], [16.883939288314124, 46.039049468541904], [16.883932503598484, 46.039027189008195], [16.883921066684447, 46.03898963999608], [16.883911912918116, 46.038959584603965], [16.883897560506764, 46.03891575786654], [16.883896722056996, 46.038912965131686], [16.88388298470116, 46.03886970587359], [16.883852302771587, 46.03885716910784], [16.88383408635817, 46.038847516487685], [16.883778251702683, 46.03881882801903], [16.883722209252745, 46.03878026986457], [16.883711790275758, 46.03877515012479], [16.88370436347236, 46.03877152023706], [16.883589187156524, 46.038770950401585], [16.883461510620307, 46.03877031621795], [16.883430037237392, 46.03877016087809], [16.883333832812816, 46.0387696845952], [16.883299275390833, 46.03876951257018], [16.883206156280586, 46.03876905012629], [16.883168514838307, 46.03876886410833], [16.88307847847708, 46.03876841821829], [16.883058357983945, 46.0387683173993], [16.883037752995936, 46.03876821550121], [16.882929156896125, 46.0387676769334], [16.88290422869526, 46.03876566221184], [16.88282590644794, 46.03876519397338], [16.882799924377828, 46.038762484546034], [16.882764268169485, 46.038758667516674], [16.88270734315319, 46.03875815183035], [16.88267065949197, 46.03875259987781], [16.88261299564136, 46.03874387181871], [16.882599370416578, 46.038743662798176], [16.88254129893976, 46.03872884559883], [16.88251877986939, 46.03870991985748], [16.88251026565884, 46.03869435642897], [16.882501584980478, 46.03866702470923], [16.882490395065542, 46.038639469248196], [16.882480865713987, 46.03860447891881], [16.882473754127773, 46.03856075913355], [16.88247331765772, 46.038557981238576], [16.882466301107787, 46.03851455175663], [16.882461793274054, 46.03847875913148], [16.88246005431459, 46.03845928696713], [16.882455878473486, 46.038424610731184], [16.8824532357591, 46.038394366076524], [16.882450508871475, 46.03836315626184], [16.88244579427492, 46.03830918829441], [16.882440159665997, 46.038244711519646], [16.882438104671078, 46.038224184994306], [16.88243238780949, 46.03817156641824], [16.88243068927455, 46.03815476730137], [16.882413672807605, 46.038064848329405], [16.882407289156355, 46.038031118824854], [16.88239897232435, 46.037980470419235], [16.882398602025788, 46.037974922843766], [16.88239549728292, 46.037967028847675], [16.882375898031004, 46.037906285099936], [16.882366368186627, 46.037885054774435], [16.8823374158571, 46.03784293403209], [16.882304663307306, 46.03779528527689], [16.88229626078255, 46.03778146249031], [16.88227609522474, 46.03774123872522], [16.8822647190393, 46.037713231281856], [16.88226441728799, 46.03770544397591], [16.8822433408922, 46.03763785437692], [16.88223638899259, 46.03761556179993], [16.882225692965545, 46.0375812636606], [16.882220218089476, 46.037563702475154], [16.882208360788976, 46.037525679615385], [16.882197094069735, 46.037489552371355], [16.882190115798878, 46.037467177101334], [16.882180331385253, 46.03743579742659], [16.882171784418002, 46.03741693916083], [16.882144182188842, 46.037346840338216], [16.8821437350034, 46.0373462524911], [16.882143739335554, 46.03734594385922], [16.88214355680248, 46.037345515284386], [16.882104302068694, 46.037283570339405], [16.88209658352581, 46.03725612559503], [16.88207646109192, 46.03721273719372], [16.882073959298754, 46.03720796153723], [16.882053387541742, 46.03716629407345], [16.88203153325865, 46.03715391985515], [16.88201363397822, 46.037150227686794], [16.881992507402124, 46.03715177660239], [16.881970575489238, 46.03716657086186], [16.88196183545469, 46.03720292784954], [16.881955781020693, 46.0372159882933], [16.881949195635798, 46.03725661823369], [16.881938805175153, 46.03729382560835], [16.881919218443823, 46.03732330418869], [16.881908805350037, 46.03734672912438], [16.881924376154558, 46.037373418837184], [16.881940934173425, 46.03739844429324], [16.88195950592369, 46.03743653561835], [16.881973830472365, 46.03746572272155], [16.881988133313236, 46.03750694417435], [16.881996367744655, 46.03752638834158], [16.88200027388865, 46.0375375394981], [16.882016658628434, 46.037589151605445], [16.88203093834559, 46.037606386449895], [16.88203283191404, 46.03762732291475], [16.882055075333035, 46.03767982418945], [16.882056586098436, 46.03770613889391], [16.882065660754918, 46.03773951391687], [16.882071832397834, 46.03775845121097], [16.88208117248988, 46.03779603261876], [16.882109200626985, 46.03788591483045], [16.882116127393097, 46.037908124720296], [16.882137230147784, 46.03797579702925], [16.882137652051824, 46.037983399482805], [16.882138842466723, 46.03805863065899], [16.882139221103145, 46.03806576628211], [16.882137599896094, 46.03814732046722], [16.88213743319237, 46.03815574816809], [16.882140997236228, 46.038161867210135], [16.882149934508305, 46.038181291918704], [16.882186104730557, 46.03822055972798], [16.882193957588566, 46.038245535073706], [16.8821962879787, 46.038277348159795], [16.8822003099902, 46.03830098127792], [16.88220253489111, 46.0383354822966], [16.882204946329427, 46.03837286551922], [16.882207016953643, 46.0383866761945], [16.882211660119566, 46.038467043339736], [16.88221249091468, 46.03847323630211], [16.882214702729033, 46.03851539341279], [16.882217058915874, 46.03856031320022], [16.88221707260445, 46.03856042472456], [16.882219236359376, 46.03860535415272], [16.882198113757582, 46.03863679128699], [16.882153207590825, 46.03865608021759], [16.882114449896513, 46.038668628274785], [16.882053780919648, 46.038675243673076], [16.882024186504594, 46.03868151944078], [16.88200911745914, 46.03868551884981], [16.881957384600735, 46.03869620543053], [16.881945074719617, 46.038730889088534], [16.881895635517516, 46.038775212663765], [16.88188925297352, 46.03878193089591], [16.881856706331632, 46.038786517739375], [16.881791442940234, 46.03880401023841], [16.88176665499886, 46.03880659976663], [16.88174485145853, 46.038802054130265], [16.881671716407592, 46.03878713564147], [16.88164241657703, 46.03878367043557], [16.881637275783838, 46.038780096663146], [16.881631688541283, 46.038783361649664], [16.8816180183228, 46.03878731494738], [16.881535934640162, 46.038806859126154], [16.881508261327035, 46.038806575402496], [16.881485373600256, 46.03880368349352], [16.88143384231152, 46.03878792974686], [16.88139551726285, 46.03877645525076], [16.88137883482355, 46.03877318091035], [16.88136121032887, 46.03877588501016], [16.881308453324138, 46.03878834813907], [16.881265456318346, 46.03879938136066], [16.881249830313063, 46.03880112143311], [16.881188822320258, 46.0388360673137], [16.88118028757156, 46.03883738153369], [16.881121000963066, 46.038854557695736], [16.881089448966804, 46.03885706795928], [16.88101141789192, 46.03886570846573], [16.88099189227357, 46.03886738682259], [16.880978166555018, 46.03886985382693], [16.88095990746507, 46.03887948632455], [16.880954078321473, 46.038906026149014], [16.88093824969109, 46.03893186779742], [16.88093416631452, 46.03896954801581], [16.880910457212103, 46.03900224329568], [16.88086373861083, 46.0390192253781], [16.8808052302198, 46.03901920708855], [16.880777655347895, 46.03903007177292], [16.880734612933523, 46.039029645615805], [16.880715714335757, 46.03904700733413], [16.880701246381363, 46.03906029997764], [16.880725230909036, 46.039066932286865], [16.880734887832695, 46.03906966957624], [16.880798800621452, 46.03910561256555], [16.88082946463622, 46.03914984871666], [16.880841260082715, 46.03916616703049], [16.88086483786644, 46.0391792168464], [16.880916754803405, 46.039203494778924], [16.880942102412316, 46.039239449241286], [16.880950270679218, 46.03927033683212], [16.88099494817808, 46.039312008703476], [16.881009180521726, 46.03931932488637], [16.881015195252466, 46.03932918148888], [16.881013250930593, 46.039341790893246], [16.880995349069593, 46.03937033603626], [16.88096867995396, 46.03940059474856], [16.8809498285217, 46.039419375266974], [16.880916121446628, 46.039453888090684], [16.880871266242217, 46.039506704059136], [16.88086870361209, 46.03950962151914], [16.88086712799157, 46.03951252939172], [16.88083295562513, 46.03957561648279], [16.880819877349726, 46.03959976010007], [16.880794395935393, 46.03963856522132], [16.880768599345036, 46.03966929785063], [16.880752411843517, 46.03968996075378], [16.880747538467016, 46.03969579212984], [16.88073923660568, 46.039702818109625], [16.880689034058364, 46.03972524086887], [16.88067164282736, 46.03973298813282], [16.880610434348192, 46.03976057613883], [16.8805664229387, 46.039780556076], [16.88051298928656, 46.03980264670808], [16.88048159351951, 46.039812753846505], [16.88044622879756, 46.039805550231584], [16.88036387450727, 46.039781230323754], [16.88035562686751, 46.03977884461794], [16.88035215696413, 46.039778147155324], [16.880344664779358, 46.03977608554713], [16.880222713743812, 46.03974254520627], [16.880158214612827, 46.03973682944705], [16.88015796281027, 46.03973684917951], [16.880093450750998, 46.039733202872036], [16.88004343568743, 46.03974739732941], [16.88003025277073, 46.03978234010869], [16.880057868924208, 46.03980738214374], [16.880094138321706, 46.03983347600564], [16.88014389849, 46.03983730364317], [16.880204434494964, 46.03987173669917], [16.88021815800309, 46.039875498825765], [16.88022363672387, 46.03987710376467], [16.88031048812835, 46.039900989521634], [16.8803530802472, 46.03991270391138], [16.88041170263294, 46.03991187538014], [16.880425314506102, 46.039910663087056], [16.880482259048705, 46.0399097132383], [16.88052046451704, 46.039934171056196], [16.88052829091408, 46.03996063479789], [16.880568814512177, 46.03999058420713], [16.88061224319696, 46.04002401319217], [16.880633658701832, 46.0400354003022], [16.88064118050277, 46.04005023476825], [16.880633446060415, 46.04006483032023], [16.880612579642534, 46.04007301203468], [16.88056204921173, 46.04010512982942], [16.88049628257882, 46.04014069311514], [16.880491886795216, 46.04014628085477], [16.880483900604, 46.04014886545509], [16.88046822368781, 46.04015171769147], [16.880380621127753, 46.04015907957776], [16.880354817748053, 46.040165919939525], [16.880296735834232, 46.04019076480318], [16.880225995826155, 46.04022102600692], [16.880215307834618, 46.04022414593541], [16.880191873537253, 46.040231681990555], [16.880126767204388, 46.0402526190876], [16.880097084280234, 46.04026309922129], [16.88004814553105, 46.040266256358564], [16.8800194034534, 46.04026811005585], [16.879967941242295, 46.040271430307584], [16.879904612875098, 46.040276764949255], [16.87990234902804, 46.04027691553569], [16.879838817450153, 46.04028257562928], [16.879791620387618, 46.0402900844], [16.879776003652193, 46.04032304046885], [16.87974545323627, 46.040347787268566], [16.87971017725119, 46.04036432416524], [16.87969138161778, 46.04040003684662], [16.8796863226348, 46.04041331429658], [16.87967552275728, 46.04043783440729], [16.879664080128816, 46.04047075320016], [16.879646657657464, 46.04050342192724], [16.879625863810617, 46.04053394152885], [16.87958231653096, 46.040559955123825], [16.87951263280845, 46.04059384290211], [16.87948326724563, 46.04061467714451], [16.879453544382987, 46.04062257763482], [16.879401555130737, 46.04064786159043], [16.879326344269142, 46.04068443718582], [16.87932575723938, 46.04068512564995], [16.87932477297182, 46.040685350257206], [16.879321849228926, 46.04068649455628], [16.879240847610575, 46.040716104486954], [16.879195923584767, 46.04073676713845], [16.879142716354327, 46.040737963078946], [16.87911717933738, 46.04073998406932], [16.879066753219107, 46.04074128321922], [16.87901516016707, 46.040739523438106], [16.87899044466303, 46.04073868044338], [16.8789375218266, 46.04073687554996], [16.878887759760023, 46.04074119290905], [16.87884193954054, 46.04075268265345], [16.878808458599575, 46.04075707197738], [16.878788737799454, 46.04076243691524], [16.878755307417634, 46.04077630681294], [16.878710566352087, 46.04079806367336], [16.87867964009027, 46.04081310303555], [16.8786344263799, 46.040835091770205], [16.878550866342003, 46.04087572633118], [16.878497148631073, 46.0409194966411], [16.878437445281033, 46.040967862017084], [16.878422376643538, 46.04097999836699], [16.87838207369874, 46.04101921641504], [16.878361158027513, 46.04104753987614], [16.878372657403553, 46.04108261398766], [16.878370005136173, 46.04110044248703], [16.878377069385195, 46.041137463061794], [16.878349229940472, 46.04117566179791], [16.878342048526967, 46.0411945391117], [16.878324676909653, 46.041227612355904], [16.878314713917206, 46.041241402642484], [16.878295006613655, 46.041248398712256], [16.878245314290712, 46.04128308061254], [16.878198534255272, 46.04129543614262], [16.878166206233537, 46.04130732994813], [16.878145885626882, 46.041318179887746], [16.8781069553922, 46.04135981994356], [16.87810355108098, 46.04136439208169], [16.878094209943, 46.0413687805139], [16.878037630921817, 46.041399301227315], [16.878030755213423, 46.041403726487616], [16.87802159415341, 46.04140856689678], [16.87799153511828, 46.04144096494361], [16.877986159949213, 46.04146251574146], [16.877965605661206, 46.04145919432479], [16.87790893035481, 46.041472963587985], [16.87786891053648, 46.04147118571707], [16.877818179756765, 46.04147243493654], [16.877779709168948, 46.04147029021021], [16.877728536165968, 46.041463904600874], [16.87770371448127, 46.041462502928816], [16.877650395116174, 46.04145398475162], [16.877589628723594, 46.041457636092964], [16.87758201236393, 46.04145765855526], [16.87752123877744, 46.0414608240144], [16.877457073041523, 46.04145574805852], [16.87745613375125, 46.041455750260766], [16.877391955610157, 46.041449040347786], [16.877344188887335, 46.04144404604257], [16.877290876464503, 46.04143065278297], [16.87726259815297, 46.041426333711456], [16.877243591926614, 46.041424363890954], [16.87719139429081, 46.0414113097134], [16.877139629896284, 46.04140704742268], [16.877133259141747, 46.04140632254436], [16.877125758780952, 46.04140630230484], [16.8770138992868, 46.04140503468054], [16.877004047408313, 46.04140501049288], [16.876994452024125, 46.04140527518064], [16.876886558762223, 46.04140415360646], [16.87687484078825, 46.041404449576866], [16.87686393063167, 46.0414047896699], [16.87675665933282, 46.04140507134513], [16.876745644388855, 46.0414053919776], [16.876730642971133, 46.0414023975422], [16.876646826143922, 46.041391882979205], [16.87661629343773, 46.04138358884556], [16.876568142598703, 46.041379850644866], [16.87653531877025, 46.04137986970931], [16.87648703223387, 46.04137498382957], [16.876423503029187, 46.04136962447198], [16.87642116381289, 46.041369719452646], [16.87635773801244, 46.04136151018262], [16.876312562635803, 46.04135566203992], [16.87623757232162, 46.04132447765405], [16.876232040238143, 46.04132186766985], [16.876228243070667, 46.041318455688156], [16.876189082717666, 46.041297465454456], [16.87616067090099, 46.04128163773791], [16.876098619484246, 46.041256412065536], [16.87606485431379, 46.04125859531255], [16.87601468708826, 46.041266712433675], [16.875969501716913, 46.04126889813239], [16.875924606327242, 46.041266786512324], [16.87584363948379, 46.041235797877434], [16.875840959564187, 46.0412351876561], [16.875840070104065, 46.04123510690343], [16.875838322433, 46.04123459978796], [16.87574986241894, 46.04120882643349], [16.87571061306442, 46.04119754112409], [16.875650704825098, 46.04119472474824], [16.875634279315175, 46.041199678817804], [16.875581366322763, 46.04119098558592], [16.87552163324762, 46.04118846728661], [16.873388018622588, 46.04384864063965], [16.87506065698786, 46.04438202652169], [16.875216667134282, 46.04402451384641], [16.875212919586097, 46.04402138779275], [16.87515784866903, 46.043975458664086], [16.875112311663962, 46.043937475474614], [16.875125669143483, 46.043907677533035], [16.875140778465, 46.0438877747785], [16.875150017351338, 46.043847375904924], [16.875180376937262, 46.043825537194884], [16.87521148099539, 46.04380888943683], [16.875255979409616, 46.04378813708574], [16.875300275047344, 46.043756906799466], [16.87532164185697, 46.04374387831998], [16.875340165260138, 46.043731492603875], [16.875372327316267, 46.04373428690094], [16.87542872460947, 46.043756484948545], [16.875449263600956, 46.04377060576804], [16.875464987367412, 46.04384276150759], [16.87546708020228, 46.043846334770194], [16.87546740332134, 46.043848256491906], [16.87547019500132, 46.04385275780861], [16.87549819567618, 46.04391701292389], [16.87550320711972, 46.043936191899675], [16.875539337544218, 46.04397849498814], [16.875556459947575, 46.04399541446438], [16.87558631993109, 46.04402589462495], [16.875590071492812, 46.044033232420944], [16.875600638877934, 46.044035048496944], [16.875648895544717, 46.044082283763046], [16.87568589388775, 46.04411554318205], [16.87570043728827, 46.044136454342635], [16.87573058652817, 46.04414401487546], [16.875768804685357, 46.04417879714681], [16.875795144438154, 46.04420515983541], [16.87581137446355, 46.0442392747846], [16.87586063089575, 46.04426716727205], [16.875883356917665, 46.044279076412934], [16.87590341595566, 46.04429477960296], [16.87593318488317, 46.0443344518994], [16.87599061576781, 46.04438146429491], [16.87599466121827, 46.044381639036146], [16.876055044479884, 46.044384256620965], [16.87611532414203, 46.04438722002191], [16.876119869618858, 46.04438796355987], [16.876127699562588, 46.04438946198316], [16.876230283851882, 46.04439681008101], [16.876249179638528, 46.04440273217021], [16.87630791833998, 46.04442422566112], [16.87631661684572, 46.044426523795956], [16.876378847257154, 46.04447014789994], [16.876381812385926, 46.04447315682388], [16.876470186162216, 46.04456284157361], [16.87648586796559, 46.04457875522581], [16.876508954189596, 46.044602184456906], [16.876536083883327, 46.04463385924142], [16.876547688707234, 46.044652562069714], [16.876566435739182, 46.04469210225548], [16.876570292229555, 46.044700214364454], [16.876590248575248, 46.04474239764973], [16.876602350533087, 46.044768081856056], [16.87662911753098, 46.04482489165282], [16.876632577299908, 46.044832233974184], [16.876635204927734, 46.044835389764316], [16.876639798996987, 46.0448427067534], [16.876675103922054, 46.044897745571866], [16.87668736053244, 46.04492202923539], [16.876720099290402, 46.044956518826226], [16.876769457863094, 46.04501124856302], [16.876769900474365, 46.045011732973265], [16.876770160799406, 46.045012012839614], [16.876820750981892, 46.04506657113879], [16.876852518209144, 46.04510143639369], [16.87686998776343, 46.04512236294708], [16.876900369977772, 46.04515875874469], [16.87691754645612, 46.045179334451724], [16.876964017467017, 46.045235003074836], [16.877002328227, 46.0452808939332], [16.877012664135595, 46.045293277399], [16.877030643186767, 46.04531481498169], [16.877070804078834, 46.04534281072634], [16.877118411910875, 46.045370486765094], [16.87714190026614, 46.045383236211414], [16.877160387251873, 46.0453930095621], [16.877215659804484, 46.04542179036315], [16.877288838841412, 46.045459900103346], [16.877289321705604, 46.04546041227118], [16.877290066382194, 46.045461611889564], [16.877328424581847, 46.04552332742222], [16.87733839723527, 46.045549712290104], [16.87738000660445, 46.04557747100543], [16.877381107881032, 46.04561225290887], [16.877394809076918, 46.04563950182459], [16.87740385420293, 46.04565111122575], [16.877420607838374, 46.04565679096055], [16.87745540009868, 46.04566349623046], [16.877497140452952, 46.04567593879153], [16.877549995784083, 46.04568251239138], [16.87759905502901, 46.04567704236804], [16.87772055490619, 46.0456077494248], [16.87784670383097, 46.04538581206481], [16.87791522689781, 46.04495595109146], [16.878068035512285, 46.04464583899705], [16.878429048092933, 46.044323970485806], [16.87856543434341, 46.044208025237026], [16.87856543409738, 46.04420802498281], [16.879025757559855, 46.043816689064194], [16.879120498959836, 46.04378353366921], [16.879316152482716, 46.043712703373075], [16.879338711674034, 46.04370507053372], [16.879751526401705, 46.04359113992645], [16.879876247445374, 46.04355860409692], [16.880052800088702, 46.04351006004783], [16.880283376997273, 46.043426155440955], [16.880581218962632, 46.043259518574374], [16.88082632359602, 46.04314650229988], [16.88118622936616, 46.04294924520532], [16.881255379821468, 46.04295288352031], [16.881917206610183, 46.043032461964565], [16.88240991051685, 46.043131767407665], [16.882611233041462, 46.04320928263601], [16.883011080964366, 46.04338729583341], [16.883011080964373, 46.04338729583341]]]}, "properties": {"color": "#e3170a", "weight": 3, "popup": "<b>Retencija za obranu od poplava JAVOROVAC — 53,06 ha</b><br>180 čestica k.o. Mosti (popis čestica Zavoda ovdje <b>validiran u cijelosti</b>).<br><b>Ne postoji ni u jednoj namjenskoj klasi karte 1.1</b> — ispod nje je P3 62,5 %, šuma 21 %, <b>S5 10,5 %</b>, V1 3,5 %. Prikazana je samo na karti 2.4.<br><b>Preklop s građevinskim područjem ~5,57 ha</b> (GPN, stambena S5).<br>Dodatno (Zavod nije primijetio): čl. 58. odredbi vodi Javorovac kao građevinu <b>državnog</b> značaja, a po VI. ID PP BBŽ je <b>područnog (regionalnog)</b>.<br>Postoje i <b>dvije verzije geometrije</b> (53,06 vs 53,40 ha u AKUMULACIJE.shp) — odabrati mjerodavnu prije unosa u namjenu.<br><i>površina 53,06 ha</i>", "tooltip": "Retencija Javorovac — nije na karti 1.1", "E": 529632, "N": 5100357}}, {"type": "Feature", "geometry": {"type": "Polygon", "coordinates": [[[16.87895230199069, 46.04358038620648], [16.879120498959843, 46.04378353366921], [16.879316152482716, 46.04371270337308], [16.8791053315916, 46.04351176702712], [16.879025859586086, 46.043548200881084], [16.87895230199069, 46.04358038620648]]]}, "properties": {"color": "#8a2be2", "weight": 3, "popup": "<b>k.č. 79/1 k.o. Mosti — 0,04 ha</b><br>Primjer preklopa: <b>100 % u retenciji I 100 % u GPN</b>.<br>Zavod traži da se GP izuzme iz obuhvata retencije — izrađivač je prihvatio.", "tooltip": "k.č. 79/1 — 100 % retencija I 100 % GPN", "E": 529342, "N": 5100497}}]}