{"type": "FeatureCollection", "features": [{"type": "Feature", "geometry": {"type": "LineString", "coordinates": [[16.89731893525077, 46.03634859104273], [16.89715965834871, 46.03049645816163], [16.895387943219728, 46.021664270558574], [16.892511015136762, 46.014525208835245], [16.888304482667497, 46.008319151267415], [16.88581814781949, 46.00495845914251], [16.885744947433775, 46.003071899880936], [16.887691448747077, 46.00011699230769], [16.891295330913923, 45.997540780357156], [16.89253932668525, 45.99639230696302], [16.8912093329771, 45.99072186045324], [16.888263103186972, 45.977084205166356], [16.8852464566672, 45.960260942139534]]}, "properties": {"color": "#1e90ff", "weight": 4, "popup": "<b>Magistralni vodovod — POSTOJEĆI</b><br>IS-4-1-2001<br>sloj ima točno 2 dijela (4.396 m + 8.836 m)<br><i>duljina dionice 8835 m</i>", "tooltip": "Magistralni vodovod (postojeći)", "E": 529876, "N": 5095990}}, {"type": "Feature", "geometry": {"type": "LineString", "coordinates": [[16.818666295055948, 46.03453302452886], [16.81892265938215, 46.03452061259148], [16.819045590360854, 46.03455598995154], [16.819212976422126, 46.03461634631658], [16.819409018480698, 46.034694977448645], [16.81974152852843, 46.03487112037245], [16.82005037785703, 46.03504354959264], [16.8200994925474, 46.03506995495025], [16.820411227273727, 46.03524948320733], [16.820609726472068, 46.03537255349348], [16.821057183008204, 46.03567568600935], [16.8212336232793, 46.03580385581741], [16.821508862246297, 46.03597097697467], [16.821788327442707, 46.03613142734788], [16.82203863959733, 46.036254709150114], [16.82237844635733, 46.03641624769964], [16.822742792366828, 46.03659841040344], [16.823197055040854, 46.03682431593218], [16.82351553599863, 46.036960988062404], [16.823882192021994, 46.03711713754305], [16.824090631533, 46.03721435049317], [16.824455018941045, 46.03740172620004], [16.824657843016123, 46.037510380991144], [16.82491328481673, 46.03764704830764], [16.825211889276154, 46.0378075258316], [16.825413727670217, 46.037923830029605], [16.825647567150543, 46.038077292714405], [16.825761287514815, 46.03814813957412], [16.825968412527768, 46.038262268296776], [16.826048607093504, 46.03827814523697], [16.826297414517533, 46.038383966640154], [16.826560010719465, 46.038505583859184], [16.826837794870006, 46.038639213809965], [16.82688872044684, 46.038664891249105], [16.826898321673877, 46.03867179193147], [16.82690599878511, 46.03868103748929], [16.826945003574956, 46.0387446288439], [16.827025744344184, 46.03878722637098], [16.827131548989325, 46.03882975210613], [16.827175965757583, 46.03884708028902], [16.82730324329468, 46.03882836079823], [16.82744103125738, 46.03879548484191], [16.827671212711568, 46.038743808842256], [16.828095938996068, 46.03868797504463], [16.828645497512593, 46.038615315203664], [16.829036629250588, 46.03855921459891], [16.829487476071705, 46.03850770924602], [16.82995895822522, 46.0384502941108], [16.830265157959044, 46.03842952505558], [16.83044752464698, 46.038419820402964], [16.83052745471259, 46.03841275111423], [16.830572815609724, 46.0384149592993], [16.83062752875746, 46.038403913957616], [16.83068430897979, 46.03839286260911], [16.830912895638523, 46.03833452647472], [16.83096899592266, 46.03831780847233], [16.83115995483695, 46.0382758664334], [16.831420098148154, 46.03820160208913], [16.831698412259538, 46.038098222206074], [16.83198070928638, 46.03799132101461], [16.83229197911362, 46.03786858911209], [16.832633418561123, 46.03773578123493], [16.832968678947278, 46.037606949275286], [16.833305307583437, 46.037491068868725], [16.833627540126855, 46.0373876461661], [16.83388583800305, 46.03730852288449], [16.834097469614427, 46.03722494666806], [16.834351208068476, 46.03711839300818], [16.8346140137831, 46.03699453686273], [16.834965078025977, 46.03683146191251], [16.835138020543358, 46.036759783987016], [16.835236106454747, 46.03672188640136], [16.835374802364388, 46.03669124760094], [16.83554921539708, 46.036670581080344], [16.8358121481109, 46.03665379313657], [16.83616397058655, 46.03663800284095], [16.836537013769576, 46.03662772748698], [16.83693601675056, 46.03661620470258], [16.837148433028617, 46.03659911271476], [16.837216353745664, 46.036593513784794], [16.837245794664668, 46.03659108754389], [16.837310476324316, 46.0365839685248], [16.837469964158146, 46.03655227608166], [16.8376292053558, 46.036501329297835], [16.837735377571097, 46.03645512789304], [16.837873823010515, 46.03638372770661], [16.837982045642597, 46.036313676391096], [16.83807867695466, 46.03622836335276], [16.838188024259278, 46.03610981149026], [16.83830356678503, 46.03596919708121], [16.838483422842618, 46.035782594356164], [16.83860809216223, 46.035677043214825], [16.83870649977796, 46.03560792004114], [16.838760187654362, 46.0355777989405], [16.8388787095883, 46.03552346202702], [16.83900287709181, 46.03548395427437], [16.839347883238553, 46.035411219623086], [16.839642929002096, 46.03536553521082], [16.839841598023035, 46.03531959678824], [16.840049949652638, 46.03525158510742], [16.840254050334213, 46.03518565514766], [16.840533014590815, 46.035088100191125], [16.840726155992154, 46.03502589105196], [16.841145702511373, 46.034890845325435], [16.841464279723848, 46.034786061746225], [16.84176619145168, 46.03468141708788], [16.84209923383275, 46.034576408527265], [16.842433892400646, 46.034482281241935], [16.84272340048693, 46.0343988155595], [16.843021243379173, 46.034326301194405], [16.843224250791433, 46.03429357032701], [16.843441902541535, 46.03426835307509], [16.84362113430582, 46.03425566760565], [16.843823407259674, 46.03427125496989], [16.843979125920033, 46.034300028609266], [16.844132621631495, 46.034345274329254], [16.844316007048988, 46.03441895217955], [16.84446768853319, 46.03450478206864], [16.844563059484862, 46.034572156507565], [16.84470169307723, 46.034699414355565], [16.84488783973661, 46.03488438320282], [16.84505131576296, 46.03505907295228], [16.845159684112936, 46.03518030323668], [16.84534101452424, 46.035255245301485], [16.84546773152876, 46.035294001887245], [16.845668045416563, 46.0353469319212], [16.845922525820352, 46.035405636087646], [16.84613811992175, 46.03544349306706], [16.846397618062586, 46.03547806742744], [16.846665260906132, 46.03551351625441], [16.846853294127378, 46.035544257401035], [16.8470212650955, 46.03558954527903], [16.84712135632335, 46.03562595151787], [16.847248752340096, 46.03566965274105], [16.84749856077568, 46.03578631209094], [16.847746105784786, 46.035892090691625], [16.847984674531098, 46.03598781878017], [16.84832060200926, 46.036116450819044], [16.848604709565752, 46.036242540656424], [16.848647348877225, 46.03626409479363], [16.848800798537248, 46.03636215023863], [16.84905067110288, 46.03650849804179], [16.849200748471517, 46.03658370936091], [16.84934180900012, 46.036642572425166], [16.84941299303199, 46.03668347382286], [16.849523471526176, 46.036748733523886], [16.849520782727655, 46.036751885845526], [16.849480098522086, 46.03679465883911], [16.849425459726152, 46.03687814359569], [16.84939528926918, 46.03696974133636], [16.849391949442243, 46.03705477878492], [16.8494058632716, 46.037130585944595], [16.849446757214015, 46.0372440105214], [16.84950641519984, 46.03736232637825], [16.849566773296004, 46.037489187771406], [16.849630769459644, 46.037619277133544], [16.849697408359365, 46.03771768685342], [16.849835600981496, 46.03793572544064], [16.849956471145287, 46.038090563838054], [16.850097793313143, 46.038231033291005], [16.850196485613058, 46.03833123401529], [16.850394395547294, 46.038512378752024], [16.85056111416415, 46.03866419669874], [16.85067348274043, 46.03878163042572], [16.850808427344166, 46.03893453522297], [16.850887604664123, 46.039033355620994], [16.850932550048203, 46.0391125763563], [16.850958936920616, 46.0391786276068], [16.85098895195592, 46.03930756084809], [16.85107393022545, 46.039546995590236], [16.851150672960014, 46.039771159663836], [16.851229044218062, 46.040007555390766], [16.851309446816167, 46.04023818635526], [16.85141826084338, 46.040568603105775], [16.851490424740334, 46.04072223991914], [16.851569546612094, 46.04085246155834], [16.85174988672857, 46.041133531108265], [16.851856541590998, 46.04132665089484], [16.851933319019718, 46.041453640355705], [16.852038831817982, 46.04162948811652], [16.852100663402496, 46.041722242696835], [16.85212462844155, 46.04175240074917], [16.85216825150069, 46.04184656102478], [16.852332175648865, 46.04216618984543], [16.852480360259563, 46.042407947886275], [16.85261585875167, 46.042605116854155], [16.85272843209838, 46.042752779727735], [16.85284794123513, 46.04289385283993], [16.853013205568946, 46.04305763837112], [16.85314851077806, 46.043183366483625], [16.853311997562308, 46.04331125671654], [16.85369063022793, 46.04358316224518], [16.854025473157893, 46.04383612728173], [16.854296547464582, 46.04403746295354], [16.854561259221715, 46.044233599117014], [16.85476087717454, 46.04437325197065], [16.854991904958386, 46.04453476101487], [16.855222665869434, 46.04469474082874], [16.855261666430895, 46.04473177961388], [16.855373384113854, 46.044804672605565], [16.855583979753522, 46.04496300484003], [16.855790952218978, 46.045100203650684], [16.85604842305476, 46.04525371035291], [16.856212767791916, 46.045352261614305], [16.856468753684343, 46.045495514752076], [16.856814304849912, 46.045681946039785], [16.857176699206327, 46.04587507182616], [16.857480512770994, 46.046040487204955], [16.85766166100439, 46.0461391637646], [16.857899978069966, 46.0462664532806], [16.858206355165553, 46.046427989734106], [16.858551939516428, 46.04661774473962], [16.858916682935607, 46.04681256715019], [16.859327841265834, 46.04703099607922], [16.85960976449072, 46.04718630732448], [16.85981789780179, 46.04730046134742], [16.860018402488574, 46.04741373926127], [16.86036043733729, 46.047612137620895], [16.86040672904409, 46.04763691494226], [16.860571668508594, 46.0477252907629], [16.860872064219727, 46.047878651109244], [16.86107819472968, 46.047982102034254], [16.86124991668301, 46.04806001825774]]}, "properties": {"color": "#1e90ff", "weight": 4, "popup": "<b>Magistralni vodovod — POSTOJEĆI</b><br>IS-4-1-2001<br>sloj ima točno 2 dijela (4.396 m + 8.836 m)<br><i>duljina dionice 4396 m</i>", "tooltip": "Magistralni vodovod (postojeći)", "E": 526585, "N": 5099442}}, {"type": "Feature", "geometry": {"type": "LineString", "coordinates": [[16.86124991668301, 46.04806001825774], [16.86165035396174, 46.048271686459756], [16.863023995450433, 46.048807115814036], [16.86308557523705, 46.04839698113664], [16.86303369923741, 46.04815929632609], [16.863060928278138, 46.04793820801951], [16.863374905823846, 46.04756976141276], [16.86351754407596, 46.0472549521579], [16.86360555147808, 46.046836826960075], [16.863702314286694, 46.04654527862779], [16.863924372788844, 46.04623125649881], [16.864104280035498, 46.04575870343214], [16.864359888318372, 46.045468731110766], [16.865073874286274, 46.044961947103424], [16.865511822202855, 46.044634252143794], [16.86591645209868, 46.044269883099915], [16.866128435981622, 46.04389251170477], [16.86628255633069, 46.04356990729047], [16.866257076857554, 46.043150654528326], [16.866189121008922, 46.04258867928722], [16.866101584212753, 46.042429698862136], [16.86571873436362, 46.04228360307449], [16.8654739759924, 46.042044007112864], [16.86523447129785, 46.041546761409606], [16.865093281964914, 46.041237040307756], [16.865088401923675, 46.04092076565225], [16.86550116768245, 46.040158009644934], [16.86587487802023, 46.039639940044275], [16.86625433474111, 46.038839711601085], [16.866596577806366, 46.03819483757529], [16.86694579979578, 46.03776348456793], [16.867496804555177, 46.03745271251816], [16.868367807541983, 46.03647312054826], [16.869244573730775, 46.03565409347069], [16.869396720328535, 46.035426332182375], [16.869588853030002, 46.034906456835614], [16.86977945461983, 46.03446090160014], [16.870014222673017, 46.03407584303146], [16.870356453653233, 46.03369866953657], [16.87137065991784, 46.03301174755226], [16.871777595271073, 46.032301188405334], [16.87290097018333, 46.032471051980984], [16.874829312267252, 46.03290465677833], [16.876236002381127, 46.033465436327006], [16.876651776405943, 46.033566559613824], [16.877260999551975, 46.03349314075193], [16.877950274623025, 46.03321760105781], [16.879100951788967, 46.03266427734882], [16.879594531375645, 46.032422151532394], [16.879635908496645, 46.03288129473236], [16.87987019317592, 46.03319235402539], [16.8804879773199, 46.03332190520352], [16.881283695832394, 46.03341790579387], [16.882466334898293, 46.033791158018495], [16.8830702307429, 46.033982313799726], [16.883855965900022, 46.03394587020278], [16.884590177999392, 46.033953028923484], [16.88496029723012, 46.03380666453909], [16.885189394865442, 46.03374714324858], [16.88560678148839, 46.03376885198535], [16.886122961300718, 46.03391502750631], [16.886704737335833, 46.03394715436721], [16.88721356691656, 46.033828597625906], [16.887502071955083, 46.033646209296094], [16.887999651623833, 46.03345696419511], [16.88871013083934, 46.0333844681796], [16.88928153829964, 46.03330179673709], [16.89003528113154, 46.03296505743491], [16.892129927216505, 46.03332058626705], [16.89260841217728, 46.033633983207366], [16.89311879596154, 46.034220529393664], [16.893473866605728, 46.034604749379], [16.894090571683268, 46.03499264321134], [16.89490914408434, 46.035283149604986], [16.895419994329583, 46.035566262505135], [16.896251843447107, 46.035909072621145], [16.89657539662385, 46.036068454216135], [16.896843108981663, 46.03616565658313], [16.897100560841622, 46.03621224982971], [16.897171110651005, 46.03624811780524], [16.897272501687677, 46.036357085773275]]}, "properties": {"color": "#ff8c00", "weight": 4, "popup": "<b>Magistralni vodovod — PLANIRANI</b><br>IS-4-1-2002<br>spaja dva postojeća dijela međusobno (527957→530751), <b>4,6 km istočnije</b> od sporne dionice — ne produžuje trasu prema Zrinskom Topolovcu<br><i>duljina dionice 4549 m</i>", "tooltip": "Magistralni vodovod (planirani)", "E": 528779, "N": 5099233}}, {"type": "Feature", "geometry": {"type": "Polygon", "coordinates": [[[16.8298830672846, 45.955723117880545], [16.829873600440642, 45.95617291236709], [16.830518492219962, 45.95617951349347], [16.83052795384865, 45.95572971890419], [16.8298830672846, 45.955723117880545]]]}, "properties": {"color": "#8a2be2", "weight": 2, "popup": "<b>Vodosprema (VS)</b><br><i>površina 0,25 ha</i>", "tooltip": "Vodosprema", "E": 525596, "N": 5090734}}, {"type": "Feature", "geometry": {"type": "Polygon", "coordinates": [[[16.873064536839085, 46.009617807296166], [16.87305541327901, 46.01006760006075], [16.873700934759164, 46.01007395551782], [16.87371005308883, 46.009624162654184], [16.873064536839085, 46.009617807296166]]]}, "properties": {"color": "#8a2be2", "weight": 2, "popup": "<b>Vodosprema (VS)</b><br><i>površina 0,25 ha</i>", "tooltip": "Vodosprema", "E": 528915, "N": 5096738}}, {"type": "Feature", "geometry": {"type": "Polygon", "coordinates": [[[16.89676245404677, 46.03623505029164], [16.89681831343891, 46.03629604000675], [16.896883042669174, 46.03640495607034], [16.89695515900592, 46.03658924627533], [16.897428195199087, 46.03733728184987], [16.897486665390286, 46.0374738419251], [16.897617875970816, 46.03734076101675], [16.897676465177344, 46.036971565890354], [16.89774559421794, 46.03657696081694], [16.897618126392377, 46.036150828400324], [16.897602039667188, 46.0361054465114], [16.89676245404677, 46.03623505029164]]]}, "properties": {"color": "#8a2be2", "weight": 2, "popup": "<b>Vodosprema (VS)</b><br><i>površina 0,62 ha</i>", "tooltip": "Vodosprema", "E": 530757, "N": 5099726}}, {"type": "Feature", "geometry": {"type": "Polygon", "coordinates": [[[16.818145391567985, 46.034596649065165], [16.81816934820005, 46.03469663562455], [16.818260759586625, 46.034687383524556], [16.818392397576062, 46.03477672290437], [16.818558623336905, 46.034770051383056], [16.818476760461518, 46.03455244776699], [16.818145391567985, 46.034596649065165]]]}, "properties": {"color": "#e3170a", "weight": 3, "popup": "<b>k.č. 897 k.o. Sredice Gornje</b><br>Ovdje ZAVRŠAVA zapadni dio postojećeg magistralnog voda (27 m od centroida čestice).<br>Od ove točke prema zapadu <b>nije ucrtano ništa</b>.", "tooltip": "k.č. 897 k.o. Sredice Gornje", "E": 524644, "N": 5099478}}, {"type": "Feature", "geometry": {"type": "Polygon", "coordinates": [[[16.805333560983886, 46.033404411687634], [16.805173270051696, 46.03355006098223], [16.805547448666267, 46.03400640904543], [16.805433934298545, 46.03406051806906], [16.805405459031917, 46.03407409055356], [16.80540567643631, 46.03409010569113], [16.805403855045608, 46.03429885475007], [16.80538593460765, 46.03444619325079], [16.80538061556708, 46.03448903601046], [16.80568183422325, 46.034480942740124], [16.805700650253137, 46.034566459533366], [16.806002751157, 46.03457770788459], [16.80599588066266, 46.03452661994541], [16.805965952341406, 46.03430032059878], [16.805958405211396, 46.0342436559577], [16.80594923887436, 46.03417448899358], [16.805942907559, 46.034127448521886], [16.80593549462556, 46.03407168327784], [16.805915411714352, 46.033920487464115], [16.805965756268296, 46.033843423265196], [16.806079386133195, 46.03367000528902], [16.806147920653817, 46.03356508972213], [16.806106374583212, 46.033527591050756], [16.806090795193782, 46.03351359652596], [16.80583626076992, 46.03371690376089], [16.805726440137395, 46.033620743352756], [16.80567673992921, 46.0335803871064], [16.80581527655074, 46.03316801659768], [16.805631691540047, 46.033165268533125], [16.80554078190556, 46.032820093872324], [16.805364500147036, 46.032688930148964], [16.80543807498132, 46.03335824469445], [16.805333560983886, 46.033404411687634]]]}, "properties": {"color": "#e3170a", "weight": 3, "popup": "<b>k.č. 1029 k.o. Sredice Gornje</b><br>Zavod traži da vod bude ucrtan do ove čestice i dalje do granice općine.<br>Najbliži bilo koji vodoopskrbni vod: <b>785 m</b>.", "tooltip": "k.č. 1029 k.o. Sredice Gornje", "E": 523659, "N": 5099378}}, {"type": "Feature", "geometry": {"type": "LineString", "coordinates": [[16.818368487541374, 46.03466243008864], [16.80563879342809, 46.03379742060967], [16.804867358542044, 46.033744953535134]]}, "properties": {"color": "#e3170a", "weight": 5, "popup": "<b>NEDOSTAJE ~1 km trase</b><br>Od k.č. 897 do k.č. 1029 i dalje do granice općine (~1.012 m) nije ucrtano <b>ništa</b> — ni postojeće ni planirano, ni u jednom vodoopskrbnom sloju.<br><b>Ucrtati kao postojeći IS-4-1-2001 do granice općine</b> (prihvaćena primjedba iz javne rasprave) i ispraviti čl. 52. odredbi: „planirani“ → „postojeći“.", "tooltip": "NEDOSTAJE ~1 km — ucrtati kao postojeći IS-4-1-2001", "E": 523659, "N": 5099378}}]}