{"type": "FeatureCollection", "features": [{"type": "Feature", "geometry": {"type": "Polygon", "coordinates": [[[16.812262771055632, 46.01331336815055], [16.813333119374125, 46.01432977989688], [16.813373072276377, 46.0143155440844], [16.813573596790828, 46.01401330368178], [16.81332465558375, 46.013768621137025], [16.812587054776767, 46.01304183304327], [16.812472989179543, 46.013149756588405], [16.812262771055632, 46.01331336815055]]]}, "properties": {"color": "#22aa44", "weight": 3, "popup": "<b>k.č. 788/3 k.o. Pavlin Kloštar — 0,50 ha</b><br>Zavod tvrdi da je prikazana kao „ostalo zemljište namijenjeno poljoprivredi“.<br><b>NETOČNO: u Konačnom prijedlogu je KN-1-1-1310 — šuma državnog značaja, 100 %.</b><br>Uz to je i u stvarnim šumskim podlogama (HŠ odjel 58d).<br>Ovo je <b>najjači protuargument</b> u cijelom očitovanju.", "tooltip": "k.č. 788/3 — JEST šuma 1310 (Zavod tvrdi suprotno)", "E": 524233, "N": 5097144}}, {"type": "Feature", "geometry": {"type": "Polygon", "coordinates": [[[16.811893162170357, 46.01406828855787], [16.812060176588364, 46.014166806552346], [16.81214705458263, 46.0141839347258], [16.812372399900337, 46.014229296918046], [16.81242746244303, 46.01416922222068], [16.81190769224931, 46.01401120395345], [16.811893162170357, 46.01406828855787]]]}, "properties": {"color": "#22aa44", "weight": 3, "popup": "<b>k.č. 788/4 k.o. Pavlin Kloštar — 0,04 ha</b><br>Zavod tvrdi da je prikazana kao „ostalo zemljište namijenjeno poljoprivredi“.<br><b>NETOČNO: u Konačnom prijedlogu je KN-1-1-1310 — šuma državnog značaja, 100 %.</b><br>Uz to je i u stvarnim šumskim podlogama (MPŠR Bilogorske odjel 34A).<br>Ovo je <b>najjači protuargument</b> u cijelom očitovanju.", "tooltip": "k.č. 788/4 — JEST šuma 1310 (Zavod tvrdi suprotno)", "E": 524172, "N": 5097196}}, {"type": "Feature", "geometry": {"type": "Polygon", "coordinates": [[[16.809666190479568, 46.01604068506392], [16.81033115930131, 46.01620371788382], [16.81055244313817, 46.01593759696332], [16.811186858189284, 46.01571848877898], [16.811701208611904, 46.01559894836769], [16.811887826255354, 46.01541632734801], [16.811975044760786, 46.01547070488388], [16.812894432293863, 46.01499392678125], [16.812981492008646, 46.01488274768745], [16.81281740279142, 46.01466239519678], [16.81281445774798, 46.01464395812512], [16.81248133409244, 46.01460851899319], [16.812208900681302, 46.014663789136414], [16.81217646747702, 46.014775178355826], [16.811897350169907, 46.01467543692653], [16.811355877449756, 46.01497698411193], [16.810652758093514, 46.01512510881861], [16.81059340583028, 46.01506534594704], [16.81012769003976, 46.01522136975694], [16.81007220783861, 46.01550737481836], [16.80989810149634, 46.01566521548036], [16.809752349975675, 46.01581308164276], [16.809666190479568, 46.01604068506392]]]}, "properties": {"color": "#999999", "weight": 3, "popup": "<b>k.č. 788/5 k.o. Pavlin Kloštar — 1,90 ha</b><br><b>Jedina stvarna P3 u tom nizu — a Zavod je nije naveo.</b><br>Nije ni u jednoj šumskoj podlozi.<br>Čestice <b>788/6 i 788/7 ne postoje u DKP-u</b> — dioba 788 ide samo do /5.", "tooltip": "k.č. 788/5 — jedina P3, Zavod je nije citirao", "E": 524101, "N": 5097329}}]}