{"type": "FeatureCollection", "features": [{"type": "Feature", "geometry": {"type": "Polygon", "coordinates": [[[16.843510597327874, 46.04881508066447], [16.844478639219886, 46.0491356298929], [16.844614150740423, 46.04914979745901], [16.84462589634449, 46.04893984868266], [16.844365002649134, 46.0488986163696], [16.844472406849615, 46.04875667092535], [16.843999027130426, 46.04858255400047], [16.843954635295407, 46.048571350656964], [16.84374483450272, 46.04851718660524], [16.843510597327874, 46.04881508066447]]]}, "properties": {"color": "#e3170a", "weight": 2, "popup": "<b>k.č. 1259/1 k.o. Mosti — Babotok</b><br>0,30 ha<br>U Prijedlogu: građevinsko područje (stambena — poljoprivredna domaćinstva).<br>U Konačnom prijedlogu: <b>0 % u GPN/GPIN</b>, namjena KN-1-1-3399.<br>Izdvajanje iz GP-a je stvarno i u Izvješću o javnoj raspravi <b>nigdje nije evidentirano</b> — suštinski dio primjedbe Zavoda stoji.<br><i>Napomena: na česticama nema V1 ni V2 (0 %) — tvrdnja „ribnjak / površina pod vodom“ nema pokrića u podacima.</i>", "tooltip": "Babotok — k.č. 1259/1 (izvan GP)", "E": 526628, "N": 5101061}}, {"type": "Feature", "geometry": {"type": "Polygon", "coordinates": [[[16.843999027130426, 46.04858255400047], [16.844472406849615, 46.04875667092535], [16.844949811188805, 46.04816526022049], [16.844605122154526, 46.04798886783152], [16.8442817403146, 46.04816349555377], [16.843999027130426, 46.04858255400047]]]}, "properties": {"color": "#e3170a", "weight": 2, "popup": "<b>k.č. 1259/2 k.o. Mosti — Babotok</b><br>0,33 ha<br>U Prijedlogu: građevinsko područje (stambena — poljoprivredna domaćinstva).<br>U Konačnom prijedlogu: <b>0 % u GPN/GPIN</b>, namjena KN-1-1-3399.<br>Izdvajanje iz GP-a je stvarno i u Izvješću o javnoj raspravi <b>nigdje nije evidentirano</b> — suštinski dio primjedbe Zavoda stoji.<br><i>Napomena: na česticama nema V1 ni V2 (0 %) — tvrdnja „ribnjak / površina pod vodom“ nema pokrića u podacima.</i>", "tooltip": "Babotok — k.č. 1259/2 (izvan GP)", "E": 526658, "N": 5101010}}, {"type": "Feature", "geometry": {"type": "Polygon", "coordinates": [[[16.8425090604874, 46.04848832529882], [16.842510936059977, 46.04851999113553], [16.84298241349229, 46.04876340124313], [16.843406230865167, 46.04817566683628], [16.843093382831956, 46.048090589567465], [16.84305855521665, 46.048058752720834], [16.84252475610742, 46.04816355584054], [16.8425090604874, 46.04848832529882]]]}, "properties": {"color": "#e3170a", "weight": 2, "popup": "<b>k.č. 1259/3 k.o. Mosti — Babotok</b><br>0,34 ha<br>U Prijedlogu: građevinsko područje (stambena — poljoprivredna domaćinstva).<br>U Konačnom prijedlogu: <b>0 % u GPN/GPIN</b>, namjena KN-1-1-3302.<br>Izdvajanje iz GP-a je stvarno i u Izvješću o javnoj raspravi <b>nigdje nije evidentirano</b> — suštinski dio primjedbe Zavoda stoji.<br><i>Napomena: na česticama nema V1 ni V2 (0 %) — tvrdnja „ribnjak / površina pod vodom“ nema pokrića u podacima.</i>", "tooltip": "Babotok — k.č. 1259/3 (izvan GP)", "E": 526537, "N": 5101009}}, {"type": "Feature", "geometry": {"type": "Polygon", "coordinates": [[[16.844544078920908, 46.04987170392555], [16.844826080773196, 46.049960919171944], [16.844864006160766, 46.049971061977296], [16.845508541452322, 46.05009094252158], [16.845624069562046, 46.04955271843019], [16.845671738670333, 46.049446942781195], [16.845393741631746, 46.049357357608514], [16.845561388333657, 46.04897112495288], [16.844981575227695, 46.04895020260119], [16.84462589634449, 46.04893984868266], [16.844614150740423, 46.04914979745901], [16.844544078920908, 46.04987170392555]]]}, "properties": {"color": "#e3170a", "weight": 2, "popup": "<b>k.č. 1260/1 k.o. Mosti — Babotok</b><br>0,86 ha<br>U Prijedlogu: građevinsko područje (stambena — poljoprivredna domaćinstva).<br>U Konačnom prijedlogu: <b>0 % u GPN/GPIN</b>, namjena KN-1-1-3399.<br>Izdvajanje iz GP-a je stvarno i u Izvješću o javnoj raspravi <b>nigdje nije evidentirano</b> — suštinski dio primjedbe Zavoda stoji.<br><i>Napomena: na česticama nema V1 ni V2 (0 %) — tvrdnja „ribnjak / površina pod vodom“ nema pokrića u podacima.</i>", "tooltip": "Babotok — k.č. 1260/1 (izvan GP)", "E": 526704, "N": 5101135}}, {"type": "Feature", "geometry": {"type": "Polygon", "coordinates": [[[16.844981575227695, 46.04895020260119], [16.845561388333657, 46.04897112495288], [16.845393741631746, 46.049357357608514], [16.845671738670333, 46.049446942781195], [16.845961197327206, 46.04886779302653], [16.845373870438262, 46.04844974253835], [16.844981575227695, 46.04895020260119]]]}, "properties": {"color": "#e3170a", "weight": 2, "popup": "<b>k.č. 1260/2 k.o. Mosti — Babotok</b><br>0,37 ha<br>U Prijedlogu: građevinsko područje (stambena — poljoprivredna domaćinstva).<br>U Konačnom prijedlogu: <b>0 % u GPN/GPIN</b>, namjena KN-1-1-3399.<br>Izdvajanje iz GP-a je stvarno i u Izvješću o javnoj raspravi <b>nigdje nije evidentirano</b> — suštinski dio primjedbe Zavoda stoji.<br><i>Napomena: na česticama nema V1 ni V2 (0 %) — tvrdnja „ribnjak / površina pod vodom“ nema pokrića u podacima.</i>", "tooltip": "Babotok — k.č. 1260/2 (izvan GP)", "E": 526739, "N": 5101072}}, {"type": "Feature", "geometry": {"type": "Polygon", "coordinates": [[[16.844365002649134, 46.0488986163696], [16.84462589634449, 46.04893984868266], [16.844981575227695, 46.04895020260119], [16.845373870438262, 46.04844974253835], [16.845344402535684, 46.04842805745194], [16.845356459492823, 46.04824779962549], [16.844949811188805, 46.04816526022049], [16.844472406849615, 46.04875667092535], [16.844365002649134, 46.0488986163696]]]}, "properties": {"color": "#e3170a", "weight": 2, "popup": "<b>k.č. 1260/3 k.o. Mosti — Babotok</b><br>0,39 ha<br>U Prijedlogu: građevinsko područje (stambena — poljoprivredna domaćinstva).<br>U Konačnom prijedlogu: <b>0 % u GPN/GPIN</b>, namjena KN-1-1-3399.<br>Izdvajanje iz GP-a je stvarno i u Izvješću o javnoj raspravi <b>nigdje nije evidentirano</b> — suštinski dio primjedbe Zavoda stoji.<br><i>Napomena: na česticama nema V1 ni V2 (0 %) — tvrdnja „ribnjak / površina pod vodom“ nema pokrića u podacima.</i>", "tooltip": "Babotok — k.č. 1260/3 (izvan GP)", "E": 526693, "N": 5101034}}, {"type": "Feature", "geometry": {"type": "Polygon", "coordinates": [[[16.84538846237058, 46.048303037998295], [16.84592191405963, 46.0485158368987], [16.846303445424667, 46.04848660911087], [16.846753599452853, 46.04785973298316], [16.84668723202944, 46.04784715775574], [16.846528930080556, 46.04776288066489], [16.845812552722908, 46.04836419882086], [16.845604949843768, 46.048310391434406], [16.845470226853173, 46.04827732775352], [16.84538846237058, 46.048303037998295]]]}, "properties": {"color": "#e3170a", "weight": 2, "popup": "<b>k.č. 1261/2 k.o. Mosti — Babotok</b><br>0,30 ha<br>U Prijedlogu: građevinsko područje (stambena — poljoprivredna domaćinstva).<br>U Konačnom prijedlogu: <b>0 % u GPN/GPIN</b>, namjena KN-1-1-3399.<br>Izdvajanje iz GP-a je stvarno i u Izvješću o javnoj raspravi <b>nigdje nije evidentirano</b> — suštinski dio primjedbe Zavoda stoji.<br><i>Napomena: na česticama nema V1 ni V2 (0 %) — tvrdnja „ribnjak / površina pod vodom“ nema pokrića u podacima.</i>", "tooltip": "Babotok — k.č. 1261/2 (izvan GP)", "E": 526793, "N": 5100992}}, {"type": "Feature", "geometry": {"type": "Polygon", "coordinates": [[[16.848752996910886, 46.04324131126687], [16.849024490180078, 46.04390252454062], [16.849296015655657, 46.04432179207776], [16.84945029610579, 46.04462984748545], [16.84962198962163, 46.04458460444488], [16.84980389820685, 46.044540589544035], [16.849969788748464, 46.0444972532319], [16.849696035257924, 46.04397155274817], [16.849728547071244, 46.04392286633615], [16.84924713857075, 46.0431883362376], [16.848893563294734, 46.04315747468279], [16.848752996910886, 46.04324131126687]]]}, "properties": {"color": "#ff8c00", "weight": 3, "popup": "<b>k.č. 1270 k.o. Mosti — CJELOVITA, 0,72 ha</b><br>Zavod citira <b>1270/1</b> i <b>1270/3</b> — te čestice <b>ne postoje</b> ni u jednoj od 8 k.o.; u DKP-u postoji samo nedijeljena 1270 (7.168 m²).<br>Također: <b>1249/2 i 1249/3 ne postoje u k.o. Mosti</b> (broj 1249 je preskočen, niz ide 1248/1 → 1250/2) — postoje u <b>k.o. Kobasičari</b>; Zavod je zamijenio katastarsku općinu.", "tooltip": "k.č. 1270 — Zavod citira nepostojeće 1270/1 i 1270/3", "E": 527038, "N": 5100513}}, {"type": "Feature", "geometry": {"type": "Polygon", "coordinates": [[[16.83239775366512, 46.04055586089429], [16.832306681681665, 46.04047208827113], [16.832180988224692, 46.04034585762204], [16.832167985386057, 46.04033203913033], [16.832058504803758, 46.04021619842343], [16.83171211709727, 46.039848753103364], [16.83166367146986, 46.03978465092765], [16.83163957950988, 46.03975286937973], [16.83163098416591, 46.03974146738495], [16.831616474859956, 46.03971334703753], [16.831553862634546, 46.039591971288736], [16.831516138651725, 46.03948428962447], [16.83149918072663, 46.039435571889], [16.831404386831803, 46.0392257531288], [16.831346497644706, 46.039116240376906], [16.831325458979865, 46.039076442054494], [16.83129187444709, 46.03903434072106], [16.831220148234166, 46.03894421282224], [16.831136744218906, 46.03884566097818], [16.83102721124933, 46.03872019198672], [16.831010038331247, 46.03870026707713], [16.830738789463233, 46.03838613672981], [16.830599510925733, 46.03840687423168], [16.830935247447776, 46.038767515687056], [16.831002106270496, 46.03884317174709], [16.831116442210448, 46.038972405832446], [16.831129189839174, 46.0389868550175], [16.831222166691724, 46.03910904277847], [16.831243578902072, 46.03914650066433], [16.83128235587164, 46.03921432006088], [16.83130324546635, 46.03925078971507], [16.831383115859502, 46.0394496747719], [16.831439622425282, 46.03958717400329], [16.83144971795, 46.039611798114805], [16.83153970289006, 46.03977349368558], [16.831627595383576, 46.03988768799687], [16.831723803681086, 46.039988091796424], [16.831977977132325, 46.040253322452436], [16.832065719294164, 46.040342143662826], [16.83210627598199, 46.04038323476631], [16.832233497086154, 46.04050568207029], [16.83232719290544, 46.04059610533519], [16.832399762419165, 46.040653838755084], [16.83245844142366, 46.04070054550404], [16.83274756808865, 46.04089000305293], [16.832923486517455, 46.04101005839901], [16.83293101846433, 46.041016424744384], [16.833033227797888, 46.04110421332385], [16.83305283860752, 46.04112107163873], [16.833147357971846, 46.041219139768806], [16.833214930914075, 46.04128363541717], [16.833355530334636, 46.041438523727905], [16.833452737095488, 46.04155358919531], [16.83354694014884, 46.04166326479343], [16.833569740941822, 46.041694869745626], [16.83372374387779, 46.04190820276466], [16.833969319674864, 46.042265949160196], [16.83397336073389, 46.04227187575671], [16.834096963449134, 46.04247854889148], [16.83411080215225, 46.0425022620558], [16.834187829962833, 46.04263439129328], [16.834237048637803, 46.042697230446], [16.83429408042317, 46.04277012401677], [16.834381028457, 46.04287595116414], [16.834400552899996, 46.04289973763327], [16.8345032430806, 46.043002009569676], [16.83454054572329, 46.04303852054787], [16.83470925213001, 46.04320349214173], [16.83474265770832, 46.043236505408416], [16.834830007834377, 46.043323076205], [16.834898377391955, 46.043390357751555], [16.834946516055794, 46.043445281884196], [16.835035296487476, 46.04355461220829], [16.835086442776703, 46.043636790133114], [16.83510019649276, 46.04371043999348], [16.835074015533486, 46.043761173127336], [16.835023557375095, 46.04381422681399], [16.834923539383336, 46.043876603247305], [16.835004796120216, 46.043938178483934], [16.835088415815953, 46.04387764957357], [16.835109255836233, 46.043862472538706], [16.8351674246796, 46.04378114380156], [16.83521030710147, 46.04371461589923], [16.835219267708283, 46.04370073334499], [16.835180273272904, 46.04359827528855], [16.83516305109633, 46.043570703220325], [16.835131866852382, 46.04352049818598], [16.83505809826562, 46.0434364971077], [16.83503012552173, 46.043404547719035], [16.834909735075914, 46.04328136376607], [16.834777025623364, 46.04315074777507], [16.834670741931546, 46.043052625496934], [16.834624357414473, 46.04300993281966], [16.83458368891027, 46.04297235201203], [16.834506021332157, 46.042884313071625], [16.834483254263628, 46.04285846666619], [16.834391147687633, 46.04275427425333], [16.83428287269009, 46.04260424138539], [16.834205261070025, 46.042482461137965], [16.834188172727867, 46.04245551835706], [16.834085415662813, 46.042277576654314], [16.83407053147681, 46.04225188707365], [16.834064394428342, 46.04224119788798], [16.83402647117983, 46.04218732322848], [16.83400679192236, 46.04215921830522], [16.833808444068822, 46.041877183687106], [16.833700718969812, 46.041732097310124], [16.833655259429726, 46.04167104645904], [16.833622954893585, 46.041627502479045], [16.83351672018962, 46.0414937485277], [16.833436180959705, 46.041400228691565], [16.833294945149614, 46.041246961899915], [16.833167439423907, 46.04112082761262], [16.833124677983236, 46.04107857363079], [16.832988868576773, 46.040968029163835], [16.832809450957278, 46.04084618458971], [16.83253285983184, 46.04065723058041], [16.83239775366512, 46.04055586089429]]]}, "properties": {"color": "#ff8c00", "weight": 3, "popup": "<b>k.č. 1250 k.o. Sredice Gornje — CESTA</b><br>0,56 ha<br>Namjena 3901 (IS1) na 100 % površine.<br><b>57 % unutar GPN, 43 % izvan.</b><br>Formulacija Zavoda „izdvojena iz građevinskog područja“ je pretjerana — većina čestice je i dalje u GP-u. Odgovor izrađivača („cesta, dio u GPN dio izvan“) je potvrđen.", "tooltip": "k.č. 1250 Sredice Gornje — cesta, 57 % u GPN", "E": 525769, "N": 5100198}}]}