{"type": "FeatureCollection", "features": [{"type": "Feature", "geometry": {"type": "Polygon", "coordinates": [[[16.854668930735347, 46.0835995222695], [16.854695399348355, 46.08361374619025], [16.85500798099862, 46.083865066177644], [16.85535297959801, 46.08404961291869], [16.855485791546283, 46.084173275706725], [16.85582204811523, 46.08432491729826], [16.85664136873884, 46.0845544997458], [16.856689465772067, 46.08455389978859], [16.856718462149125, 46.084478680033406], [16.856763336824326, 46.08435932287741], [16.856992115215263, 46.08388461935551], [16.85690915674461, 46.08377258940177], [16.856669621236822, 46.083641523465865], [16.855731295363668, 46.083442543281706], [16.854733021471567, 46.08339112080792], [16.854668930735347, 46.0835995222695]]]}, "properties": {"color": "#e3170a", "weight": 2, "popup": "<b>k.č. 19 k.o. Mosti — 1,35 ha</b><br>U važećem planu Š1 (tvrdnja Zavoda), u Konačnom prijedlogu <b>KN-1-1-3302</b> (ostalo poljoprivredno) — sadašnje stanje potvrđeno <b>11/11</b> (100 %, odn. 71–99 %).<br><b>Nijedna od ovih čestica nije ni u jednom dostavljenom šumskom poligonu HŠ/MPŠR</b> — obrana izrađivača u podacima drži.<br>Za k.č. 23 Zavod se poziva na GJ „Novigradska planina“ (UŠP Koprivnica) — <b>te GJ u dostavljenim podacima uopće nema</b> (postoji samo GJ „Bjelovarska Bilogora“, UŠP Bjelovar), što istovremeno potkrepljuje proceduralni prigovor Zavoda.", "tooltip": "T6: k.č. 19 Mosti — sad P3 (3302)", "E": 527527, "N": 5104962}}, {"type": "Feature", "geometry": {"type": "Polygon", "coordinates": [[[16.854395320729072, 46.083376062800404], [16.854668930735347, 46.0835995222695], [16.854733021471567, 46.08339112080792], [16.854709351827584, 46.0833899346113], [16.854395320729072, 46.083376062800404]]]}, "properties": {"color": "#e3170a", "weight": 2, "popup": "<b>k.č. 20 k.o. Mosti — 0,03 ha</b><br>U važećem planu Š1 (tvrdnja Zavoda), u Konačnom prijedlogu <b>KN-1-1-3302</b> (ostalo poljoprivredno) — sadašnje stanje potvrđeno <b>11/11</b> (100 %, odn. 71–99 %).<br><b>Nijedna od ovih čestica nije ni u jednom dostavljenom šumskom poligonu HŠ/MPŠR</b> — obrana izrađivača u podacima drži.<br>Za k.č. 23 Zavod se poziva na GJ „Novigradska planina“ (UŠP Koprivnica) — <b>te GJ u dostavljenim podacima uopće nema</b> (postoji samo GJ „Bjelovarska Bilogora“, UŠP Bjelovar), što istovremeno potkrepljuje proceduralni prigovor Zavoda.", "tooltip": "T6: k.č. 20 Mosti — sad P3 (3302)", "E": 527424, "N": 5104913}}, {"type": "Feature", "geometry": {"type": "Polygon", "coordinates": [[[16.850978303221673, 46.08384709926722], [16.852049597903108, 46.084176892789166], [16.85263006558511, 46.083917504548005], [16.852932175087165, 46.08370387079446], [16.853754663089095, 46.08348151884607], [16.85462709025595, 46.083627994271914], [16.854278011577975, 46.08337084799943], [16.853891035254833, 46.08335387179201], [16.853455554530246, 46.083374743878025], [16.85310850298543, 46.083413966020196], [16.85227019914806, 46.08358948499639], [16.85133678327174, 46.083794712093], [16.851069416438634, 46.08384007131729], [16.850978303221673, 46.08384709926722]]]}, "properties": {"color": "#e3170a", "weight": 2, "popup": "<b>k.č. 22 k.o. Mosti — 0,80 ha</b><br>U važećem planu Š1 (tvrdnja Zavoda), u Konačnom prijedlogu <b>KN-1-1-3302</b> (ostalo poljoprivredno) — sadašnje stanje potvrđeno <b>11/11</b> (100 %, odn. 71–99 %).<br><b>Nijedna od ovih čestica nije ni u jednom dostavljenom šumskom poligonu HŠ/MPŠR</b> — obrana izrađivača u podacima drži.<br>Za k.č. 23 Zavod se poziva na GJ „Novigradska planina“ (UŠP Koprivnica) — <b>te GJ u dostavljenim podacima uopće nema</b> (postoji samo GJ „Bjelovarska Bilogora“, UŠP Bjelovar), što istovremeno potkrepljuje proceduralni prigovor Zavoda.", "tooltip": "T6: k.č. 22 Mosti — sad P3 (3302)", "E": 527269, "N": 5104942}}, {"type": "Feature", "geometry": {"type": "Polygon", "coordinates": [[[16.850978303221673, 46.08384709926722], [16.85115602158358, 46.08471211455656], [16.851350600052893, 46.08493240563144], [16.851956445874624, 46.08439204036642], [16.852049597903108, 46.084176892789166], [16.850978303221673, 46.08384709926722]]]}, "properties": {"color": "#e3170a", "weight": 2, "popup": "<b>k.č. 23 k.o. Mosti — 0,54 ha</b><br>U važećem planu Š1 (tvrdnja Zavoda), u Konačnom prijedlogu <b>KN-1-1-3302</b> (ostalo poljoprivredno) — sadašnje stanje potvrđeno <b>11/11</b> (100 %, odn. 71–99 %).<br><b>Nijedna od ovih čestica nije ni u jednom dostavljenom šumskom poligonu HŠ/MPŠR</b> — obrana izrađivača u podacima drži.<br>Za k.č. 23 Zavod se poziva na GJ „Novigradska planina“ (UŠP Koprivnica) — <b>te GJ u dostavljenim podacima uopće nema</b> (postoji samo GJ „Bjelovarska Bilogora“, UŠP Bjelovar), što istovremeno potkrepljuje proceduralni prigovor Zavoda.", "tooltip": "T6: k.č. 23 Mosti — sad P3 (3302)", "E": 527180, "N": 5105011}}, {"type": "Feature", "geometry": {"type": "Polygon", "coordinates": [[[16.850929321027852, 46.083850758694986], [16.851101897405158, 46.08472064851339], [16.851308170314145, 46.084970325614755], [16.851350600052893, 46.08493240563144], [16.85115602158358, 46.08471211455656], [16.850978303221673, 46.08384709926722], [16.850929321027852, 46.083850758694986]]]}, "properties": {"color": "#e3170a", "weight": 2, "popup": "<b>k.č. 1883 k.o. Mosti — 0,05 ha</b><br>U važećem planu Š1 (tvrdnja Zavoda), u Konačnom prijedlogu <b>KN-1-1-3302</b> (ostalo poljoprivredno) — sadašnje stanje potvrđeno <b>11/11</b> (100 %, odn. 71–99 %).<br><b>Nijedna od ovih čestica nije ni u jednom dostavljenom šumskom poligonu HŠ/MPŠR</b> — obrana izrađivača u podacima drži.<br>Za k.č. 23 Zavod se poziva na GJ „Novigradska planina“ (UŠP Koprivnica) — <b>te GJ u dostavljenim podacima uopće nema</b> (postoji samo GJ „Bjelovarska Bilogora“, UŠP Bjelovar), što istovremeno potkrepljuje proceduralni prigovor Zavoda.", "tooltip": "T6: k.č. 1883 Mosti — sad P3 (3302)", "E": 527153, "N": 5105022}}, {"type": "Feature", "geometry": {"type": "Polygon", "coordinates": [[[16.854278011577975, 46.08337084799943], [16.85462709025595, 46.083627994271914], [16.854959371340914, 46.08388645128545], [16.855286643135788, 46.08406907382077], [16.855441973552647, 46.08421597023203], [16.855815060650848, 46.08436434817482], [16.856601127708203, 46.084590345439274], [16.856689918638185, 46.08460410451869], [16.856689465772067, 46.08455389978859], [16.85664136873884, 46.0845544997458], [16.85582204811523, 46.08432491729826], [16.855485791546283, 46.084173275706725], [16.85535297959801, 46.08404961291869], [16.85500798099862, 46.083865066177644], [16.854695399348355, 46.08361374619025], [16.854668930735347, 46.0835995222695], [16.854395320729072, 46.083376062800404], [16.854278011577975, 46.08337084799943]]]}, "properties": {"color": "#e3170a", "weight": 2, "popup": "<b>k.č. 1885 k.o. Mosti — 0,11 ha</b><br>U važećem planu Š1 (tvrdnja Zavoda), u Konačnom prijedlogu <b>KN-1-1-3302</b> (ostalo poljoprivredno) — sadašnje stanje potvrđeno <b>11/11</b> (100 %, odn. 71–99 %).<br><b>Nijedna od ovih čestica nije ni u jednom dostavljenom šumskom poligonu HŠ/MPŠR</b> — obrana izrađivača u podacima drži.<br>Za k.č. 23 Zavod se poziva na GJ „Novigradska planina“ (UŠP Koprivnica) — <b>te GJ u dostavljenim podacima uopće nema</b> (postoji samo GJ „Bjelovarska Bilogora“, UŠP Bjelovar), što istovremeno potkrepljuje proceduralni prigovor Zavoda.", "tooltip": "T6: k.č. 1885 Mosti — sad P3 (3302)", "E": 527486, "N": 5104979}}, {"type": "Feature", "geometry": {"type": "Polygon", "coordinates": [[[16.843216967989452, 46.0883936281893], [16.84328909403941, 46.088076069397665], [16.843153632133678, 46.088106077966195], [16.842764163352264, 46.088192542949855], [16.8425547541283, 46.0882257417119], [16.84237444229068, 46.088238428588504], [16.841968589730172, 46.08824783126875], [16.841852970159497, 46.08824547786652], [16.84217823625265, 46.08846206440363], [16.842418222605424, 46.088626360056246], [16.84297426639041, 46.08893897596278], [16.8430162290716, 46.08894946710357], [16.843104137117912, 46.08869511359184], [16.843188432191955, 46.08846299469893], [16.843216967989452, 46.0883936281893]]]}, "properties": {"color": "#e3170a", "weight": 2, "popup": "<b>k.č. 2137 k.o. Mosti — 0,50 ha</b><br>U važećem planu Š1 (tvrdnja Zavoda), u Konačnom prijedlogu <b>KN-1-1-3302</b> (ostalo poljoprivredno) — sadašnje stanje potvrđeno <b>11/11</b> (100 %, odn. 71–99 %).<br><b>Nijedna od ovih čestica nije ni u jednom dostavljenom šumskom poligonu HŠ/MPŠR</b> — obrana izrađivača u podacima drži.<br>Za k.č. 23 Zavod se poziva na GJ „Novigradska planina“ (UŠP Koprivnica) — <b>te GJ u dostavljenim podacima uopće nema</b> (postoji samo GJ „Bjelovarska Bilogora“, UŠP Bjelovar), što istovremeno potkrepljuje proceduralni prigovor Zavoda.", "tooltip": "T6: k.č. 2137 Mosti — sad P3 (3302)", "E": 526504, "N": 5105464}}, {"type": "Feature", "geometry": {"type": "Polygon", "coordinates": [[[16.843104137117912, 46.08869511359184], [16.8430162290716, 46.08894946710357], [16.843102277463824, 46.08895829632856], [16.843157006379485, 46.08871276995011], [16.84326457006037, 46.0884377529944], [16.843443609166396, 46.08807407565453], [16.843528380228506, 46.08802316492615], [16.84328909403941, 46.088076069397665], [16.843216967989452, 46.0883936281893], [16.843188432191955, 46.08846299469893], [16.843104137117912, 46.08869511359184]]]}, "properties": {"color": "#e3170a", "weight": 2, "popup": "<b>k.č. 2139 k.o. Mosti — 0,07 ha</b><br>U važećem planu Š1 (tvrdnja Zavoda), u Konačnom prijedlogu <b>KN-1-1-3302</b> (ostalo poljoprivredno) — sadašnje stanje potvrđeno <b>11/11</b> (100 %, odn. 71–99 %).<br><b>Nijedna od ovih čestica nije ni u jednom dostavljenom šumskom poligonu HŠ/MPŠR</b> — obrana izrađivača u podacima drži.<br>Za k.č. 23 Zavod se poziva na GJ „Novigradska planina“ (UŠP Koprivnica) — <b>te GJ u dostavljenim podacima uopće nema</b> (postoji samo GJ „Bjelovarska Bilogora“, UŠP Bjelovar), što istovremeno potkrepljuje proceduralni prigovor Zavoda.", "tooltip": "T6: k.č. 2139 Mosti — sad P3 (3302)", "E": 526543, "N": 5105463}}, {"type": "Feature", "geometry": {"type": "Polygon", "coordinates": [[[16.841797876437443, 46.088244382974835], [16.842400127165842, 46.08866951233571], [16.842993500532163, 46.08899614240686], [16.8430162290716, 46.08894946710357], [16.84297426639041, 46.08893897596278], [16.842418222605424, 46.088626360056246], [16.84217823625265, 46.08846206440363], [16.841852970159497, 46.08824547786652], [16.841797876437443, 46.088244382974835]]]}, "properties": {"color": "#e3170a", "weight": 2, "popup": "<b>k.č. 2140 k.o. Mosti — 0,05 ha</b><br>U važećem planu Š1 (tvrdnja Zavoda), u Konačnom prijedlogu <b>KN-1-1-3302</b> (ostalo poljoprivredno) — sadašnje stanje potvrđeno <b>11/11</b> (100 %, odn. 71–99 %).<br><b>Nijedna od ovih čestica nije ni u jednom dostavljenom šumskom poligonu HŠ/MPŠR</b> — obrana izrađivača u podacima drži.<br>Za k.č. 23 Zavod se poziva na GJ „Novigradska planina“ (UŠP Koprivnica) — <b>te GJ u dostavljenim podacima uopće nema</b> (postoji samo GJ „Bjelovarska Bilogora“, UŠP Bjelovar), što istovremeno potkrepljuje proceduralni prigovor Zavoda.", "tooltip": "T6: k.č. 2140 Mosti — sad P3 (3302)", "E": 526481, "N": 5105484}}, {"type": "Feature", "geometry": {"type": "Polygon", "coordinates": [[[16.885636618164266, 46.05607734080605], [16.88586651283276, 46.05633452502751], [16.885986369397347, 46.05663895772991], [16.886192067145334, 46.05642789989424], [16.886127125634072, 46.05634453195079], [16.885979856232648, 46.05616786737037], [16.885636618164266, 46.05607734080605]]]}, "properties": {"color": "#e3170a", "weight": 2, "popup": "<b>k.č. 690 k.o. Mosti — 0,10 ha</b><br>U važećem planu Š1 (tvrdnja Zavoda), u Konačnom prijedlogu <b>KN-1-1-3302</b> (ostalo poljoprivredno) — sadašnje stanje potvrđeno <b>11/11</b> (100 %, odn. 71–99 %).<br><b>Nijedna od ovih čestica nije ni u jednom dostavljenom šumskom poligonu HŠ/MPŠR</b> — obrana izrađivača u podacima drži.<br>Za k.č. 23 Zavod se poziva na GJ „Novigradska planina“ (UŠP Koprivnica) — <b>te GJ u dostavljenim podacima uopće nema</b> (postoji samo GJ „Bjelovarska Bilogora“, UŠP Bjelovar), što istovremeno potkrepljuje proceduralni prigovor Zavoda.", "tooltip": "T6: k.č. 690 Mosti — sad P3 (3302)", "E": 529864, "N": 5101910}}, {"type": "Feature", "geometry": {"type": "Polygon", "coordinates": [[[16.885313173927642, 46.05474463280508], [16.88551225789362, 46.054920943581685], [16.88568798548453, 46.05532488121783], [16.885539562395845, 46.05559467904668], [16.885539325844753, 46.055597828991786], [16.885519172920418, 46.05597039608176], [16.885514368844273, 46.056004333097405], [16.885636618164266, 46.05607734080605], [16.885979856232648, 46.05616786737037], [16.886127125634072, 46.05634453195079], [16.88631765970424, 46.055719817160906], [16.886289562758197, 46.05528595963201], [16.88606193409294, 46.05453759150328], [16.885821979259635, 46.054356560958915], [16.885822272658146, 46.05423167375974], [16.885552966002244, 46.05419659225897], [16.885485324155585, 46.054467557156144], [16.885357091462758, 46.054685730645055], [16.885313173927642, 46.05474463280508]]]}, "properties": {"color": "#e3170a", "weight": 2, "popup": "<b>k.č. 692 k.o. Mosti — 1,08 ha</b><br>U važećem planu Š1 (tvrdnja Zavoda), u Konačnom prijedlogu <b>KN-1-1-3302</b> (ostalo poljoprivredno) — sadašnje stanje potvrđeno <b>11/11</b> (100 %, odn. 71–99 %).<br><b>Nijedna od ovih čestica nije ni u jednom dostavljenom šumskom poligonu HŠ/MPŠR</b> — obrana izrađivača u podacima drži.<br>Za k.č. 23 Zavod se poziva na GJ „Novigradska planina“ (UŠP Koprivnica) — <b>te GJ u dostavljenim podacima uopće nema</b> (postoji samo GJ „Bjelovarska Bilogora“, UŠP Bjelovar), što istovremeno potkrepljuje proceduralni prigovor Zavoda.", "tooltip": "T6: k.č. 692 Mosti — sad P3 (3302)", "E": 529858, "N": 5101790}}, {"type": "Feature", "geometry": {"type": "Polygon", "coordinates": [[[16.86155063400679, 46.034257941253216], [16.86180521514483, 46.03454802791647], [16.86247315928945, 46.034891329224784], [16.86293050968881, 46.03473745859409], [16.863295069269576, 46.03469698088926], [16.86349249381203, 46.03466162246357], [16.863685395612897, 46.03466550760504], [16.863606205648594, 46.03442939272149], [16.86331863722566, 46.0339958132871], [16.86155063400679, 46.034257941253216]]]}, "properties": {"color": "#ff8c00", "weight": 3, "popup": "<b>k.č. 21/1 k.o. Zdelice — 0,99 ha</b><br><b>IZAŠLA iz šume nakon javne rasprave</b> (primjer Zavoda za ~128 ha). Sada 3302; nije ni u jednoj šumskoj podlozi.<br>Izmjereno ukupno: <b>130,8 ha izašlo</b> iz šume (Zavod navodi ~128 ha).<br><i>Tehnički dug: u DISSOLVED setu ista je čestica istovremeno šuma (1310) i P3 (3302) na 100 % površine — konflikt.</i>", "tooltip": "T8: 21/1 Zdelice — izašla iz šume", "E": 528075, "N": 5099467}}, {"type": "Feature", "geometry": {"type": "Polygon", "coordinates": [[[16.859873389039475, 46.03154784949346], [16.85991363407335, 46.03161835392976], [16.861162301307598, 46.032393877066205], [16.861222058170725, 46.03262348689703], [16.86161791040823, 46.03235194725427], [16.86160270353295, 46.03211985730403], [16.861535790772635, 46.03192221176725], [16.861520443225388, 46.031926039306015], [16.861237638263763, 46.031941509607684], [16.860915728572596, 46.03206192473758], [16.860586591761173, 46.031766492700214], [16.86025788756104, 46.031556985420956], [16.860136866857793, 46.031401078500146], [16.859873389039475, 46.03154784949346]]]}, "properties": {"color": "#22aa44", "weight": 3, "popup": "<b>k.č. 9/25 k.o. Zdelice — 0,49 ha</b><br><b>UŠLA u šumu nakon javne rasprave</b> (primjer Zavoda za ~87 ha).<br>Jest u MPŠR podlozi (odjel 21A) — <b>promjena je utemeljena</b>.<br>Izmjereno ukupno: <b>96,7 ha ušlo</b> u šumu (Zavod navodi ~87 ha).", "tooltip": "T8: 9/25 Zdelice — ušla u šumu (MPŠR odjel 21A)", "E": 527937, "N": 5099199}}]}