{"type": "FeatureCollection", "features": [{"type": "Feature", "geometry": {"type": "Polygon", "coordinates": [[[16.85250350589223, 45.9491072172314], [16.852205184477498, 45.949213500444074], [16.85120180209122, 45.94956363082151], [16.851281495086496, 45.94968260579656], [16.85141237738686, 45.949880063468285], [16.85054625359671, 45.95025531944269], [16.849726532107002, 45.95060640290071], [16.84983846904442, 45.95070449543118], [16.849922526959208, 45.950779369104325], [16.84999205046891, 45.95084034075093], [16.85008596624088, 45.95090330711171], [16.850242131797383, 45.95101916922091], [16.850386279794925, 45.95109061919076], [16.850481845837038, 45.951169686094644], [16.850721432990817, 45.95136123248373], [16.851397606945852, 45.95101274286929], [16.851885479683407, 45.95148515194972], [16.852234681732593, 45.951732053509836], [16.852266193008575, 45.951778564601874], [16.852452774232333, 45.951970450672945], [16.852485364051972, 45.952003911674474], [16.852524613600092, 45.95202979403399], [16.852630575633288, 45.95209982933444], [16.852917664183703, 45.95229446368893], [16.853303149619364, 45.952565723707465], [16.853062515440726, 45.95276000843298], [16.853470454743654, 45.95309283290228], [16.853673294745665, 45.9532638819075], [16.85361743187191, 45.95330337482763], [16.854329699550217, 45.9539014067576], [16.854563785643382, 45.953792797139506], [16.854622432881616, 45.95374492723793], [16.855001237298385, 45.95365386390414], [16.855145102441025, 45.953618415771494], [16.85530417147676, 45.953600375771764], [16.85549998125283, 45.953578622176174], [16.856078328081544, 45.953505289724475], [16.855846190008208, 45.952547036269046], [16.85588540348104, 45.95254682418302], [16.855915162359317, 45.952517923491165], [16.85554962593434, 45.952506390730655], [16.85520026044479, 45.95239851468924], [16.854081534219823, 45.95171833918036], [16.85387630285104, 45.951312727532404], [16.853914137011405, 45.95124632141958], [16.853932432801013, 45.95121420855737], [16.853928333251808, 45.95111731573608], [16.853925913053963, 45.95106153912403], [16.853883003105366, 45.9511291522598], [16.853857913236332, 45.9511797071979], [16.85373976969942, 45.951039978347126], [16.85360886216622, 45.95088085377523], [16.853520319398495, 45.95077090555085], [16.853402414402638, 45.95062784644449], [16.8533105261684, 45.95051907810292], [16.853212909640735, 45.950401959503274], [16.85300648135708, 45.95013113587429], [16.852876871891706, 45.94995230140395], [16.852738689037302, 45.94976386567407], [16.852849375278616, 45.94942035058302], [16.852589929488882, 45.949188829964044], [16.85250350589223, 45.9491072172314]], [[16.852752710950003, 45.949225545828625], [16.853219853238098, 45.94980961757817], [16.853275502796695, 45.94987917796127], [16.85316683014401, 45.94993017106167], [16.85391748393925, 45.95086727370772], [16.853908501920856, 45.95066030430531], [16.853897797924574, 45.950413608060096], [16.853734117115785, 45.95029336530854], [16.853534212470166, 45.950054824279995], [16.853298098056023, 45.94961871473248], [16.853026489703467, 45.94934107435901], [16.852752710950003, 45.949225545828625]]]}, "properties": {"color": "#e3170a", "weight": 3, "popup": "<b>KN-1-1-3602 (R2) — Starčevljani</b><br>Nakon javne rasprave R3 → R2 na <b>identičnom footprintu</b> (čestice 814/10, 823, 824/x, 815/1, 816/x k.o. Kobasičari, sve 82–100 % unutar).<br>Starčevljani se u Izvješću o JR <b>ne spominju</b> — promjena nije evidentirana.<br>R3 = igrališta na otvorenom, R2 = sportske građevine i centri → promjena namjene u smislu čl. 104. ZPU.<br><i>površina 9,23 ha</i>", "tooltip": "T3: R3→R2 Starčevljani (9,23 ha)", "E": 527370, "N": 5090250}}, {"type": "Feature", "geometry": {"type": "Polygon", "coordinates": [[[16.82660804106268, 45.94290374051762], [16.826681321245147, 45.942907670021995], [16.826655413222674, 45.942624855158144], [16.826630154841254, 45.94245262064008], [16.826017645952124, 45.94242764635923], [16.826031068622218, 45.94245127212178], [16.82611685107064, 45.94267390136799], [16.82617774269212, 45.94289660158732], [16.826196886515767, 45.942950083492384], [16.82660804106268, 45.94290374051762]]]}, "properties": {"color": "#ff8c00", "weight": 3, "popup": "<b>NOVO povećanje R3 — 1,94 ha ukupno</b><br>k.č. 1260 i 1260/1-5 k.o. Kobasičari.<br>Dodano <b>nakon javne rasprave</b>, a <b>Zavod ga uopće nije spomenuo</b>.<br>Obuhvatiti ponovnom javnom raspravom da ne postane nova primjedba u sljedećem krugu.<br><i>površina 0,23 ha</i>", "tooltip": "BONUS RIZIK: novo R3 povećanje (Zavod nije primijetio)", "E": 525306, "N": 5089256}}, {"type": "Feature", "geometry": {"type": "Polygon", "coordinates": [[[16.826196886515767, 45.942950083492384], [16.82617774269212, 45.94289660158732], [16.82611685107064, 45.94267390136799], [16.826031068622218, 45.94245127212178], [16.826017645952124, 45.94242764635923], [16.825786155188037, 45.94198984664659], [16.825745515836438, 45.941943534152166], [16.82570739094887, 45.941952190671195], [16.825587865862445, 45.94197961446427], [16.825529649065896, 45.94199300698986], [16.825673457585324, 45.94236834288453], [16.825772670701816, 45.94263826222626], [16.825838415966388, 45.9428531207584], [16.825874814113625, 45.94298638505935], [16.826196886515767, 45.942950083492384]]]}, "properties": {"color": "#ff8c00", "weight": 3, "popup": "<b>NOVO povećanje R3 — 1,94 ha ukupno</b><br>k.č. 1260 i 1260/1-5 k.o. Kobasičari.<br>Dodano <b>nakon javne rasprave</b>, a <b>Zavod ga uopće nije spomenuo</b>.<br>Obuhvatiti ponovnom javnom raspravom da ne postane nova primjedba u sljedećem krugu.<br><i>površina 0,27 ha</i>", "tooltip": "BONUS RIZIK: novo R3 povećanje (Zavod nije primijetio)", "E": 525267, "N": 5089236}}, {"type": "Feature", "geometry": {"type": "Polygon", "coordinates": [[[16.825529649065896, 45.94199300698986], [16.825504267872976, 45.94199748817895], [16.82528653037954, 45.94203589866459], [16.825464560900002, 45.94244109987774], [16.82555070954842, 45.942660579297225], [16.82562935649162, 45.94289834542924], [16.82569316862617, 45.94313552393518], [16.825761151788384, 45.943402113110125], [16.825834740552835, 45.94372544577902], [16.82603970745915, 45.94370499239038], [16.825977174854525, 45.943400417392574], [16.825910511290026, 45.94311708878871], [16.825874814113625, 45.94298638505935], [16.825838415966388, 45.9428531207584], [16.825772670701816, 45.94263826222626], [16.825673457585324, 45.94236834288453], [16.825529649065896, 45.94199300698986]]]}, "properties": {"color": "#ff8c00", "weight": 3, "popup": "<b>NOVO povećanje R3 — 1,94 ha ukupno</b><br>k.č. 1260 i 1260/1-5 k.o. Kobasičari.<br>Dodano <b>nakon javne rasprave</b>, a <b>Zavod ga uopće nije spomenuo</b>.<br>Obuhvatiti ponovnom javnom raspravom da ne postane nova primjedba u sljedećem krugu.<br><i>površina 0,33 ha</i>", "tooltip": "BONUS RIZIK: novo R3 povećanje (Zavod nije primijetio)", "E": 525253, "N": 5089274}}, {"type": "Feature", "geometry": {"type": "Polygon", "coordinates": [[[16.82521358465028, 45.943787426187455], [16.825144133484716, 45.94348997864039], [16.82506754608445, 45.94316303875242], [16.824985018851205, 45.94285681048606], [16.824915479822025, 45.942588065790815], [16.824853895221892, 45.94240036806546], [16.82472666545901, 45.94241170690245], [16.82479008187339, 45.942758569498466], [16.824846072008825, 45.94309249640445], [16.82488856145129, 45.94334512209224], [16.82492004742456, 45.943546581909835], [16.824964941097765, 45.94381323718413], [16.82521358465028, 45.943787426187455]]]}, "properties": {"color": "#ff8c00", "weight": 3, "popup": "<b>NOVO povećanje R3 — 1,94 ha ukupno</b><br>k.č. 1260 i 1260/1-5 k.o. Kobasičari.<br>Dodano <b>nakon javne rasprave</b>, a <b>Zavod ga uopće nije spomenuo</b>.<br>Obuhvatiti ponovnom javnom raspravom da ne postane nova primjedba u sljedećem krugu.<br><i>površina 0,24 ha</i>", "tooltip": "BONUS RIZIK: novo R3 povećanje (Zavod nije primijetio)", "E": 525196, "N": 5089312}}, {"type": "Feature", "geometry": {"type": "Polygon", "coordinates": [[[16.825077769454566, 45.94206555539282], [16.82477790601806, 45.9421090572725], [16.825013559762116, 45.94237768967175], [16.824836724218514, 45.94235317874077], [16.824853895221892, 45.94240036806546], [16.824915479822025, 45.942588065790815], [16.824985018851205, 45.94285681048606], [16.82506754608445, 45.94316303875242], [16.825144133484716, 45.94348997864039], [16.82521358465028, 45.943787426187455], [16.825645211892642, 45.94374435758559], [16.825644880321473, 45.94374345875666], [16.825571257640533, 45.94343882516278], [16.825471457013116, 45.943090627031076], [16.825384076222296, 45.94281491520727], [16.8252190181162, 45.942356500336636], [16.825123957490543, 45.94215657110665], [16.825077769454566, 45.94206555539282]]]}, "properties": {"color": "#ff8c00", "weight": 3, "popup": "<b>NOVO povećanje R3 — 1,94 ha ukupno</b><br>k.č. 1260 i 1260/1-5 k.o. Kobasičari.<br>Dodano <b>nakon javne rasprave</b>, a <b>Zavod ga uopće nije spomenuo</b>.<br>Obuhvatiti ponovnom javnom raspravom da ne postane nova primjedba u sljedećem krugu.<br><i>površina 0,57 ha</i>", "tooltip": "BONUS RIZIK: novo R3 povećanje (Zavod nije primijetio)", "E": 525216, "N": 5089291}}, {"type": "Feature", "geometry": {"type": "Polygon", "coordinates": [[[16.82528653037954, 45.94203589866459], [16.825077769454566, 45.94206555539282], [16.825123957490543, 45.94215657110665], [16.8252190181162, 45.942356500336636], [16.825384076222296, 45.94281491520727], [16.825471457013116, 45.943090627031076], [16.825571257640533, 45.94343882516278], [16.825644880321473, 45.94374345875666], [16.825645211892642, 45.94374435758559], [16.825834740552835, 45.94372544577902], [16.825761151788384, 45.943402113110125], [16.82569316862617, 45.94313552393518], [16.82562935649162, 45.94289834542924], [16.82555070954842, 45.942660579297225], [16.825464560900002, 45.94244109987774], [16.82528653037954, 45.94203589866459]]]}, "properties": {"color": "#ff8c00", "weight": 3, "popup": "<b>NOVO povećanje R3 — 1,94 ha ukupno</b><br>k.č. 1260 i 1260/1-5 k.o. Kobasičari.<br>Dodano <b>nakon javne rasprave</b>, a <b>Zavod ga uopće nije spomenuo</b>.<br>Obuhvatiti ponovnom javnom raspravom da ne postane nova primjedba u sljedećem krugu.<br><i>površina 0,31 ha</i>", "tooltip": "BONUS RIZIK: novo R3 povećanje (Zavod nije primijetio)", "E": 525237, "N": 5089279}}, {"type": "Feature", "geometry": {"type": "Polygon", "coordinates": [[[16.833812301104455, 45.936033750708894], [16.833824590914322, 45.9360832024344], [16.832818313523052, 45.93629719859554], [16.832942683032456, 45.93661515060165], [16.833357424134434, 45.93728499362498], [16.83325913959305, 45.93765531895887], [16.833261205178527, 45.93800012190455], [16.83326395935104, 45.938459859132834], [16.833404648150122, 45.93898101120004], [16.833355766171547, 45.93947030721021], [16.83358584965796, 45.939953230381825], [16.833435030298933, 45.940506554869785], [16.833271067353383, 45.940960876587965], [16.833557724519906, 45.94111224336398], [16.833964457166502, 45.94143206700981], [16.834513286548262, 45.94162140739405], [16.83471835081075, 45.94177476100785], [16.834992973707752, 45.94209909868539], [16.835646483985613, 45.94234241546912], [16.83621749546957, 45.94266587927877], [16.836797828022483, 45.94337782701459], [16.837091529928863, 45.943897123902175], [16.837163291002472, 45.944723698072984], [16.83668257695586, 45.945324710951304], [16.836094066760484, 45.94606630269976], [16.83629885550728, 45.94638394829492], [16.836665310572396, 45.9463393481823], [16.837227465444187, 45.945755595786224], [16.838030225534325, 45.9450326575724], [16.838753425517545, 45.94463702442131], [16.839176908932277, 45.94390932072049], [16.83982838106487, 45.9436350507927], [16.83972736649202, 45.94361905352647], [16.839389309832775, 45.94359594405032], [16.83912191408979, 45.94361221396062], [16.838903196843113, 45.94365866127471], [16.838798428403457, 45.94365204366446], [16.838662239746306, 45.94361123769187], [16.838331359917806, 45.943622925064815], [16.838124447642677, 45.943617059079585], [16.83804871354167, 45.94359163957777], [16.83793058835223, 45.94355185902702], [16.837790752172797, 45.94350494433899], [16.837364444777982, 45.94332750854354], [16.83710956166646, 45.94317376952178], [16.836673455086785, 45.942804258310616], [16.8364063017358, 45.94264686478171], [16.835884531898504, 45.94239979197434], [16.835618406034374, 45.94226236855665], [16.83547880074691, 45.942124573173466], [16.835265572751794, 45.942032792129154], [16.835122064756412, 45.94195340309215], [16.834934586873175, 45.94183266316501], [16.834843377953586, 45.94169976387893], [16.83480025085595, 45.941562764657796], [16.83484749703179, 45.941205685821686], [16.83481905457202, 45.941108503565445], [16.834778548123086, 45.940935415697204], [16.834790689057346, 45.940745527763205], [16.834747386768456, 45.94060070097628], [16.83474750755335, 45.940492187842274], [16.834770429986047, 45.94033654971608], [16.83474962984503, 45.94018049979773], [16.834662749468595, 45.93993052700283], [16.834499288008796, 45.93962022349215], [16.83439351522665, 45.939488086243855], [16.834365879897874, 45.93941762478606], [16.834388224274967, 45.93935880413386], [16.834516669026005, 45.939293644461664], [16.834600697868446, 45.93919847225312], [16.834682231743244, 45.9390959291369], [16.83473834855514, 45.93894874161826], [16.83481516707709, 45.9388556598473], [16.834947084036973, 45.938767725215584], [16.835016832371004, 45.93869994769416], [16.83506534899985, 45.93861864578589], [16.835179783135324, 45.93834756802509], [16.83528207553838, 45.93820186437236], [16.835384249183537, 45.938122114457265], [16.835501344125028, 45.938057436859445], [16.835591484823556, 45.93797124370481], [16.835636680202217, 45.937852700623004], [16.835648286366773, 45.937596140755645], [16.83559831142982, 45.93728577524606], [16.835477672719993, 45.93706190556889], [16.83528023688787, 45.936805509288746], [16.83493779591906, 45.93651822557308], [16.834544429869723, 45.936254034170574], [16.83416469465092, 45.936090126458275], [16.833812301104455, 45.936033750708894]]]}, "properties": {"color": "#1e90ff", "weight": 3, "popup": "<b>KN-1-1-1908 (IS8) — akumulacija Bjelovar na Plavnici</b><br>11,55 ha, identično sloju AKUMULACIJA BJELOVAR.<br>Promjena 3302 → 1908 izvršena je nakon JR — i to <b>na temelju prihvaćene primjedbe samog Zavoda</b> (Izvješće to izričito bilježi).<br>Akumulacija je u <b>k.o. Kobasičari</b> (70 čestica). Popis čestica koji Zavod navodi u točki 4 (2137, 2139, 2140, 23, 22, 20, 19… k.o. Mosti) je <b>12,7–15,8 km daleko</b> i identičan popisu iz točke 6 — copy-paste greška u mišljenju.<br><i>površina 11,55 ha</i>", "tooltip": "T4: akumulacija Bjelovar 1908 (11,55 ha)", "E": 525999, "N": 5089015}}]}